<?xml version="1.0"?><gpx version="1.1"><trk><name>Futrono sin horas (prueba)</name><trkseg><trkpt lat="-40.130865" lon="-72.393722"/><trkpt lat="-40.130767" lon="-72.393787"/><trkpt lat="-40.130673" lon="-72.393881"/><trkpt lat="-40.130527" lon="-72.393989"/><trkpt lat="-40.130424" lon="-72.394072"/><trkpt lat="-40.130339" lon="-72.39416"/><trkpt lat="-40.130309" lon="-72.39422"/><trkpt lat="-40.13025" lon="-72.39422"/><trkpt lat="-40.130111" lon="-72.394214"/><trkpt lat="-40.130025" lon="-72.394217"/><trkpt lat="-40.129883" lon="-72.394248"/><trkpt lat="-40.129799" lon="-72.394182"/><trkpt lat="-40.129688" lon="-72.39416"/><trkpt lat="-40.129537" lon="-72.394092"/><trkpt lat="-40.129414" lon="-72.394085"/><trkpt lat="-40.129365" lon="-72.394045"/><trkpt lat="-40.12927" lon="-72.393997"/><trkpt lat="-40.129163" lon="-72.39398"/><trkpt lat="-40.129087" lon="-72.393941"/><trkpt lat="-40.128994" lon="-72.393954"/><trkpt lat="-40.128833" lon="-72.393885"/><trkpt lat="-40.128745" lon="-72.393892"/><trkpt lat="-40.128618" lon="-72.393851"/><trkpt lat="-40.128492" lon="-72.393817"/><trkpt lat="-40.128358" lon="-72.393754"/><trkpt lat="-40.128212" lon="-72.393682"/><trkpt lat="-40.128206" lon="-72.3936"/><trkpt lat="-40.128286" lon="-72.393437"/><trkpt lat="-40.128348" lon="-72.393364"/><trkpt lat="-40.128432" lon="-72.393291"/><trkpt lat="-40.12847" lon="-72.393229"/><trkpt lat="-40.128577" lon="-72.393126"/><trkpt lat="-40.128658" lon="-72.392999"/><trkpt lat="-40.128706" lon="-72.392881"/><trkpt lat="-40.128775" lon="-72.392811"/><trkpt lat="-40.128892" lon="-72.39273"/><trkpt lat="-40.12897" lon="-72.392584"/><trkpt lat="-40.129069" lon="-72.392438"/><trkpt lat="-40.129135" lon="-72.39232"/><trkpt lat="-40.129249" lon="-72.392191"/><trkpt lat="-40.129386" lon="-72.392132"/><trkpt lat="-40.129525" lon="-72.392009"/><trkpt lat="-40.129597" lon="-72.391888"/><trkpt lat="-40.129684" lon="-72.39178"/><trkpt lat="-40.129813" lon="-72.391687"/><trkpt lat="-40.129919" lon="-72.391579"/><trkpt lat="-40.129982" lon="-72.391403"/><trkpt lat="-40.130069" lon="-72.391288"/><trkpt lat="-40.130163" lon="-72.391196"/><trkpt lat="-40.130259" lon="-72.39107"/><trkpt lat="-40.130382" lon="-72.390974"/><trkpt lat="-40.130494" lon="-72.390885"/><trkpt lat="-40.130583" lon="-72.39084"/><trkpt lat="-40.13067" lon="-72.390771"/><trkpt lat="-40.130752" lon="-72.39063"/><trkpt lat="-40.130825" lon="-72.390579"/><trkpt lat="-40.130577" lon="-72.390484"/><trkpt lat="-40.130988" lon="-72.390444"/><trkpt lat="-40.131092" lon="-72.390376"/><trkpt lat="-40.131163" lon="-72.390208"/><trkpt lat="-40.131224" lon="-72.390145"/><trkpt lat="-40.131313" lon="-72.390029"/><trkpt lat="-40.131381" lon="-72.389898"/><trkpt lat="-40.13145" lon="-72.389753"/><trkpt lat="-40.1315" lon="-72.389626"/><trkpt lat="-40.13156" lon="-72.389512"/><trkpt lat="-40.131621" lon="-72.389388"/><trkpt lat="-40.131665" lon="-72.38924"/><trkpt lat="-40.131708" lon="-72.389056"/><trkpt lat="-40.131729" lon="-72.388893"/><trkpt lat="-40.131712" lon="-72.388745"/><trkpt lat="-40.131675" lon="-72.388586"/><trkpt lat="-40.131649" lon="-72.388367"/><trkpt lat="-40.131684" lon="-72.388227"/><trkpt lat="-40.1317" lon="-72.38815"/><trkpt lat="-40.131719" lon="-72.387973"/><trkpt lat="-40.131995" lon="-72.38751"/><trkpt lat="-40.131771" lon="-72.387673"/><trkpt lat="-40.131806" lon="-72.387473"/><trkpt lat="-40.1318" lon="-72.387311"/><trkpt lat="-40.131818" lon="-72.387141"/><trkpt lat="-40.1318" lon="-72.387023"/><trkpt lat="-40.131738" lon="-72.38692"/><trkpt lat="-40.131768" lon="-72.386758"/><trkpt lat="-40.131767" lon="-72.386596"/><trkpt lat="-40.131757" lon="-72.386435"/><trkpt lat="-40.131742" lon="-72.386293"/><trkpt lat="-40.13175" lon="-72.386147"/><trkpt lat="-40.131738" lon="-72.385985"/><trkpt lat="-40.131732" lon="-72.385794"/><trkpt lat="-40.131755" lon="-72.385601"/><trkpt lat="-40.131779" lon="-72.385415"/><trkpt lat="-40.131794" lon="-72.385332"/><trkpt lat="-40.131803" lon="-72.385141"/><trkpt lat="-40.131824" lon="-72.384965"/><trkpt lat="-40.131822" lon="-72.38489"/><trkpt lat="-40.131831" lon="-72.3847"/><trkpt lat="-40.131845" lon="-72.384542"/><trkpt lat="-40.131819" lon="-72.384396"/><trkpt lat="-40.13182" lon="-72.384201"/><trkpt lat="-40.131823" lon="-72.384073"/><trkpt lat="-40.131845" lon="-72.383912"/><trkpt lat="-40.131823" lon="-72.383829"/><trkpt lat="-40.131851" lon="-72.383655"/><trkpt lat="-40.13184" lon="-72.383548"/><trkpt lat="-40.13178" lon="-72.383397"/><trkpt lat="-40.131739" lon="-72.383275"/><trkpt lat="-40.131646" lon="-72.38305"/><trkpt lat="-40.13157" lon="-72.383568"/><trkpt lat="-40.131528" lon="-72.382772"/><trkpt lat="-40.131497" lon="-72.382584"/><trkpt lat="-40.131469" lon="-72.382513"/><trkpt lat="-40.131048" lon="-72.382768"/><trkpt lat="-40.131398" lon="-72.382292"/><trkpt lat="-40.131367" lon="-72.382192"/><trkpt lat="-40.131363" lon="-72.382126"/><trkpt lat="-40.131323" lon="-72.381981"/><trkpt lat="-40.131245" lon="-72.381867"/><trkpt lat="-40.131201" lon="-72.381706"/><trkpt lat="-40.131151" lon="-72.381546"/><trkpt lat="-40.131091" lon="-72.381412"/><trkpt lat="-40.130999" lon="-72.381286"/><trkpt lat="-40.130939" lon="-72.381172"/><trkpt lat="-40.130861" lon="-72.381052"/><trkpt lat="-40.130763" lon="-72.380907"/><trkpt lat="-40.130657" lon="-72.380787"/><trkpt lat="-40.130206" lon="-72.38124"/><trkpt lat="-40.130481" lon="-72.380624"/><trkpt lat="-40.130448" lon="-72.380602"/><trkpt lat="-40.130307" lon="-72.380488"/><trkpt lat="-40.130161" lon="-72.380342"/><trkpt lat="-40.130011" lon="-72.380283"/><trkpt lat="-40.129871" lon="-72.380206"/><trkpt lat="-40.129795" lon="-72.380097"/><trkpt lat="-40.129702" lon="-72.380241"/><trkpt lat="-40.129588" lon="-72.379929"/><trkpt lat="-40.129526" lon="-72.379849"/><trkpt lat="-40.129428" lon="-72.379768"/><trkpt lat="-40.129363" lon="-72.379645"/><trkpt lat="-40.12928" lon="-72.379505"/><trkpt lat="-40.129176" lon="-72.379401"/><trkpt lat="-40.129094" lon="-72.37932"/><trkpt lat="-40.12901" lon="-72.379228"/><trkpt lat="-40.128909" lon="-72.379116"/><trkpt lat="-40.128785" lon="-72.379062"/><trkpt lat="-40.12873" lon="-72.378991"/><trkpt lat="-40.128618" lon="-72.378884"/><trkpt lat="-40.128515" lon="-72.378813"/><trkpt lat="-40.128373" lon="-72.378718"/><trkpt lat="-40.128314" lon="-72.378653"/><trkpt lat="-40.128237" lon="-72.378609"/><trkpt lat="-40.128116" lon="-72.378459"/><trkpt lat="-40.128061" lon="-72.378332"/><trkpt lat="-40.127963" lon="-72.378269"/><trkpt lat="-40.127918" lon="-72.378152"/><trkpt lat="-40.127827" lon="-72.378052"/><trkpt lat="-40.12774" lon="-72.377872"/><trkpt lat="-40.127672" lon="-72.377748"/><trkpt lat="-40.127574" lon="-72.377712"/><trkpt lat="-40.1275" lon="-72.377616"/><trkpt lat="-40.127447" lon="-72.377496"/><trkpt lat="-40.127377" lon="-72.37736"/><trkpt lat="-40.12729" lon="-72.377226"/><trkpt lat="-40.12719" lon="-72.377081"/><trkpt lat="-40.127069" lon="-72.376951"/><trkpt lat="-40.126953" lon="-72.376813"/><trkpt lat="-40.126868" lon="-72.376731"/><trkpt lat="-40.126771" lon="-72.37664"/><trkpt lat="-40.126674" lon="-72.376569"/><trkpt lat="-40.126589" lon="-72.376488"/><trkpt lat="-40.126522" lon="-72.376395"/><trkpt lat="-40.12647" lon="-72.376295"/><trkpt lat="-40.126393" lon="-72.376269"/><trkpt lat="-40.126322" lon="-72.376241"/><trkpt lat="-40.126231" lon="-72.376148"/><trkpt lat="-40.126149" lon="-72.376041"/><trkpt lat="-40.12609" lon="-72.375901"/><trkpt lat="-40.126337" lon="-72.376071"/><trkpt lat="-40.125965" lon="-72.375667"/><trkpt lat="-40.125881" lon="-72.375644"/><trkpt lat="-40.125793" lon="-72.375527"/><trkpt lat="-40.125682" lon="-72.37541"/><trkpt lat="-40.12561" lon="-72.375261"/><trkpt lat="-40.125536" lon="-72.375155"/><trkpt lat="-40.125438" lon="-72.375007"/><trkpt lat="-40.125368" lon="-72.374936"/><trkpt lat="-40.125239" lon="-72.374911"/><trkpt lat="-40.125197" lon="-72.374807"/><trkpt lat="-40.125106" lon="-72.374722"/><trkpt lat="-40.124563" lon="-72.374613"/><trkpt lat="-40.124856" lon="-72.374576"/><trkpt lat="-40.124734" lon="-72.374557"/><trkpt lat="-40.124685" lon="-72.374546"/><trkpt lat="-40.124601" lon="-72.374527"/><trkpt lat="-40.124483" lon="-72.374455"/><trkpt lat="-40.124381" lon="-72.374385"/><trkpt lat="-40.124315" lon="-72.374319"/><trkpt lat="-40.124235" lon="-72.374275"/><trkpt lat="-40.124116" lon="-72.374208"/><trkpt lat="-40.124033" lon="-72.374189"/><trkpt lat="-40.12393" lon="-72.374157"/><trkpt lat="-40.123845" lon="-72.374088"/><trkpt lat="-40.12371" lon="-72.374044"/><trkpt lat="-40.123643" lon="-72.373945"/><trkpt lat="-40.123538" lon="-72.373839"/><trkpt lat="-40.123436" lon="-72.373764"/><trkpt lat="-40.123347" lon="-72.373097"/><trkpt lat="-40.123275" lon="-72.373585"/><trkpt lat="-40.123166" lon="-72.373535"/><trkpt lat="-40.123092" lon="-72.373467"/><trkpt lat="-40.123024" lon="-72.373429"/><trkpt lat="-40.122958" lon="-72.37329"/><trkpt lat="-40.122832" lon="-72.373195"/><trkpt lat="-40.122777" lon="-72.373046"/><trkpt lat="-40.122714" lon="-72.372906"/><trkpt lat="-40.12264" lon="-72.37278"/><trkpt lat="-40.122583" lon="-72.37269"/><trkpt lat="-40.122533" lon="-72.372618"/><trkpt lat="-40.122454" lon="-72.372459"/><trkpt lat="-40.122391" lon="-72.372344"/><trkpt lat="-40.122147" lon="-72.372011"/><trkpt lat="-40.122294" lon="-72.372073"/><trkpt lat="-40.122181" lon="-72.371922"/><trkpt lat="-40.122075" lon="-72.371819"/><trkpt lat="-40.122013" lon="-72.371714"/><trkpt lat="-40.121934" lon="-72.371624"/><trkpt lat="-40.121862" lon="-72.371491"/><trkpt lat="-40.121737" lon="-72.371348"/><trkpt lat="-40.121676" lon="-72.371268"/><trkpt lat="-40.121595" lon="-72.371115"/><trkpt lat="-40.121562" lon="-72.371073"/><trkpt lat="-40.121448" lon="-72.370742"/><trkpt lat="-40.121433" lon="-72.370885"/><trkpt lat="-40.121353" lon="-72.370762"/><trkpt lat="-40.121279" lon="-72.370632"/><trkpt lat="-40.121213" lon="-72.37051"/><trkpt lat="-40.121164" lon="-72.370358"/><trkpt lat="-40.121071" lon="-72.370269"/><trkpt lat="-40.121013" lon="-72.370142"/><trkpt lat="-40.12095" lon="-72.370051"/><trkpt lat="-40.120955" lon="-72.369953"/><trkpt lat="-40.120876" lon="-72.369812"/><trkpt lat="-40.120813" lon="-72.369635"/><trkpt lat="-40.120758" lon="-72.369544"/><trkpt lat="-40.120649" lon="-72.369468"/><trkpt lat="-40.120559" lon="-72.369415"/><trkpt lat="-40.120496" lon="-72.369306"/><trkpt lat="-40.120442" lon="-72.369194"/><trkpt lat="-40.120381" lon="-72.369025"/><trkpt lat="-40.120304" lon="-72.368955"/><trkpt lat="-40.12023" lon="-72.368848"/><trkpt lat="-40.120171" lon="-72.368796"/><trkpt lat="-40.120103" lon="-72.368706"/><trkpt lat="-40.120044" lon="-72.368486"/><trkpt lat="-40.119968" lon="-72.36839"/><trkpt lat="-40.119896" lon="-72.36827"/><trkpt lat="-40.119786" lon="-72.368111"/><trkpt lat="-40.119685" lon="-72.368038"/><trkpt lat="-40.119578" lon="-72.367897"/><trkpt lat="-40.119478" lon="-72.36775"/><trkpt lat="-40.119359" lon="-72.367653"/><trkpt lat="-40.119295" lon="-72.367551"/><trkpt lat="-40.119234" lon="-72.367392"/><trkpt lat="-40.119165" lon="-72.367248"/><trkpt lat="-40.119085" lon="-72.367173"/><trkpt lat="-40.119047" lon="-72.367041"/><trkpt lat="-40.118958" lon="-72.36692"/><trkpt lat="-40.118921" lon="-72.366848"/><trkpt lat="-40.118897" lon="-72.366828"/><trkpt lat="-40.11877" lon="-72.366649"/><trkpt lat="-40.118702" lon="-72.366608"/><trkpt lat="-40.118637" lon="-72.366449"/><trkpt lat="-40.118584" lon="-72.366258"/><trkpt lat="-40.118544" lon="-72.36613"/><trkpt lat="-40.118459" lon="-72.365991"/><trkpt lat="-40.118366" lon="-72.365892"/><trkpt lat="-40.118293" lon="-72.365755"/><trkpt lat="-40.118231" lon="-72.365649"/><trkpt lat="-40.11818" lon="-72.365525"/><trkpt lat="-40.118053" lon="-72.365437"/><trkpt lat="-40.117978" lon="-72.365306"/><trkpt lat="-40.117889" lon="-72.36515"/><trkpt lat="-40.117798" lon="-72.365018"/><trkpt lat="-40.117772" lon="-72.364928"/><trkpt lat="-40.117727" lon="-72.364846"/><trkpt lat="-40.117678" lon="-72.364742"/><trkpt lat="-40.117625" lon="-72.364625"/><trkpt lat="-40.117569" lon="-72.364445"/><trkpt lat="-40.117488" lon="-72.364383"/><trkpt lat="-40.117428" lon="-72.364273"/><trkpt lat="-40.117315" lon="-72.364132"/><trkpt lat="-40.117221" lon="-72.363984"/><trkpt lat="-40.117163" lon="-72.363902"/><trkpt lat="-40.117081" lon="-72.363747"/><trkpt lat="-40.117037" lon="-72.363637"/><trkpt lat="-40.11689" lon="-72.363558"/><trkpt lat="-40.116946" lon="-72.363462"/><trkpt lat="-40.116838" lon="-72.362805"/><trkpt lat="-40.116771" lon="-72.363141"/><trkpt lat="-40.116704" lon="-72.363057"/><trkpt lat="-40.116709" lon="-72.362987"/><trkpt lat="-40.116688" lon="-72.362889"/><trkpt lat="-40.116649" lon="-72.362751"/><trkpt lat="-40.11661" lon="-72.362638"/><trkpt lat="-40.116535" lon="-72.362472"/><trkpt lat="-40.116512" lon="-72.362391"/><trkpt lat="-40.116469" lon="-72.362279"/><trkpt lat="-40.116457" lon="-72.362095"/><trkpt lat="-40.116465" lon="-72.361977"/><trkpt lat="-40.116462" lon="-72.361767"/><trkpt lat="-40.116512" lon="-72.361625"/><trkpt lat="-40.116655" lon="-72.36094"/><trkpt lat="-40.116533" lon="-72.361207"/><trkpt lat="-40.116526" lon="-72.361069"/><trkpt lat="-40.116523" lon="-72.360943"/><trkpt lat="-40.116504" lon="-72.360806"/><trkpt lat="-40.116477" lon="-72.360653"/><trkpt lat="-40.116445" lon="-72.360476"/><trkpt lat="-40.11644" lon="-72.360292"/><trkpt lat="-40.11644" lon="-72.360107"/><trkpt lat="-40.116433" lon="-72.359963"/><trkpt lat="-40.116427" lon="-72.359834"/><trkpt lat="-40.116444" lon="-72.359677"/><trkpt lat="-40.116467" lon="-72.359537"/><trkpt lat="-40.116464" lon="-72.359362"/><trkpt lat="-40.116448" lon="-72.359203"/><trkpt lat="-40.116468" lon="-72.359079"/><trkpt lat="-40.116471" lon="-72.358925"/><trkpt lat="-40.11648" lon="-72.358803"/><trkpt lat="-40.116458" lon="-72.358628"/><trkpt lat="-40.116478" lon="-72.358511"/><trkpt lat="-40.116504" lon="-72.358345"/><trkpt lat="-40.116517" lon="-72.358221"/><trkpt lat="-40.11645" lon="-72.358061"/><trkpt lat="-40.116464" lon="-72.357892"/><trkpt lat="-40.116462" lon="-72.357763"/><trkpt lat="-40.116458" lon="-72.357552"/><trkpt lat="-40.116417" lon="-72.357385"/><trkpt lat="-40.116399" lon="-72.357277"/><trkpt lat="-40.116369" lon="-72.357128"/><trkpt lat="-40.116396" lon="-72.356985"/><trkpt lat="-40.116405" lon="-72.356859"/><trkpt lat="-40.116387" lon="-72.356773"/><trkpt lat="-40.116368" lon="-72.356679"/><trkpt lat="-40.116366" lon="-72.356528"/><trkpt lat="-40.116382" lon="-72.356354"/><trkpt lat="-40.116363" lon="-72.356173"/><trkpt lat="-40.116313" lon="-72.356033"/><trkpt lat="-40.116301" lon="-72.355899"/><trkpt lat="-40.116295" lon="-72.355729"/><trkpt lat="-40.116304" lon="-72.355615"/><trkpt lat="-40.116335" lon="-72.355492"/><trkpt lat="-40.116356" lon="-72.355388"/><trkpt lat="-40.116345" lon="-72.355284"/><trkpt lat="-40.116385" lon="-72.355154"/><trkpt lat="-40.116353" lon="-72.355069"/><trkpt lat="-40.116337" lon="-72.354856"/><trkpt lat="-40.11632" lon="-72.354685"/><trkpt lat="-40.116341" lon="-72.354568"/><trkpt lat="-40.116347" lon="-72.354476"/><trkpt lat="-40.116334" lon="-72.354236"/><trkpt lat="-40.116337" lon="-72.354075"/><trkpt lat="-40.116354" lon="-72.35387"/><trkpt lat="-40.116381" lon="-72.353712"/><trkpt lat="-40.116379" lon="-72.353546"/><trkpt lat="-40.116411" lon="-72.353456"/><trkpt lat="-40.116416" lon="-72.353284"/><trkpt lat="-40.116408" lon="-72.353131"/><trkpt lat="-40.116415" lon="-72.352935"/><trkpt lat="-40.116437" lon="-72.352798"/><trkpt lat="-40.11644" lon="-72.352622"/><trkpt lat="-40.116417" lon="-72.352486"/><trkpt lat="-40.116409" lon="-72.35229"/><trkpt lat="-40.116435" lon="-72.352134"/><trkpt lat="-40.116393" lon="-72.352028"/><trkpt lat="-40.116402" lon="-72.351861"/><trkpt lat="-40.116464" lon="-72.351729"/><trkpt lat="-40.116494" lon="-72.35164"/><trkpt lat="-40.116499" lon="-72.351461"/><trkpt lat="-40.116521" lon="-72.351313"/><trkpt lat="-40.116539" lon="-72.351181"/><trkpt lat="-40.116565" lon="-72.351"/><trkpt lat="-40.116643" lon="-72.350834"/><trkpt lat="-40.116654" lon="-72.350704"/><trkpt lat="-40.116699" lon="-72.350565"/><trkpt lat="-40.116722" lon="-72.350412"/><trkpt lat="-40.116717" lon="-72.350209"/><trkpt lat="-40.116752" lon="-72.35006"/><trkpt lat="-40.116778" lon="-72.349966"/><trkpt lat="-40.116797" lon="-72.349849"/><trkpt lat="-40.11682" lon="-72.349744"/><trkpt lat="-40.116886" lon="-72.349641"/><trkpt lat="-40.116898" lon="-72.349546"/><trkpt lat="-40.11692" lon="-72.349472"/><trkpt lat="-40.116946" lon="-72.349313"/><trkpt lat="-40.116974" lon="-72.349187"/><trkpt lat="-40.117" lon="-72.349053"/><trkpt lat="-40.11703" lon="-72.348943"/><trkpt lat="-40.117076" lon="-72.348786"/><trkpt lat="-40.117091" lon="-72.348656"/><trkpt lat="-40.117139" lon="-72.348463"/><trkpt lat="-40.117192" lon="-72.348318"/><trkpt lat="-40.117241" lon="-72.348164"/><trkpt lat="-40.117296" lon="-72.348035"/><trkpt lat="-40.117307" lon="-72.347917"/><trkpt lat="-40.117351" lon="-72.347773"/><trkpt lat="-40.117381" lon="-72.347634"/><trkpt lat="-40.117418" lon="-72.347439"/><trkpt lat="-40.117468" lon="-72.347294"/><trkpt lat="-40.117519" lon="-72.34715"/><trkpt lat="-40.117575" lon="-72.347043"/><trkpt lat="-40.117649" lon="-72.34694"/><trkpt lat="-40.117689" lon="-72.346768"/><trkpt lat="-40.117737" lon="-72.346657"/><trkpt lat="-40.117778" lon="-72.346483"/><trkpt lat="-40.117824" lon="-72.346354"/><trkpt lat="-40.117917" lon="-72.34626"/><trkpt lat="-40.117975" lon="-72.346168"/><trkpt lat="-40.117976" lon="-72.346094"/><trkpt lat="-40.118013" lon="-72.346001"/><trkpt lat="-40.118102" lon="-72.345889"/><trkpt lat="-40.118158" lon="-72.345749"/><trkpt lat="-40.118279" lon="-72.345716"/><trkpt lat="-40.118396" lon="-72.345649"/><trkpt lat="-40.118481" lon="-72.345621"/><trkpt lat="-40.118586" lon="-72.345557"/><trkpt lat="-40.118691" lon="-72.345523"/><trkpt lat="-40.118737" lon="-72.345465"/><trkpt lat="-40.118843" lon="-72.345434"/><trkpt lat="-40.118951" lon="-72.345412"/><trkpt lat="-40.119044" lon="-72.34537"/><trkpt lat="-40.119132" lon="-72.345306"/><trkpt lat="-40.119261" lon="-72.345214"/><trkpt lat="-40.119339" lon="-72.34517"/><trkpt lat="-40.119494" lon="-72.34507"/><trkpt lat="-40.11959" lon="-72.345037"/><trkpt lat="-40.119771" lon="-72.344975"/><trkpt lat="-40.119875" lon="-72.344897"/><trkpt lat="-40.119959" lon="-72.344868"/><trkpt lat="-40.120072" lon="-72.344748"/><trkpt lat="-40.12019" lon="-72.344646"/><trkpt lat="-40.120305" lon="-72.344516"/><trkpt lat="-40.120409" lon="-72.34438"/><trkpt lat="-40.120513" lon="-72.344282"/><trkpt lat="-40.120636" lon="-72.344222"/><trkpt lat="-40.120736" lon="-72.344139"/><trkpt lat="-40.120828" lon="-72.344025"/><trkpt lat="-40.120934" lon="-72.343981"/><trkpt lat="-40.121057" lon="-72.34387"/><trkpt lat="-40.121202" lon="-72.343771"/><trkpt lat="-40.121292" lon="-72.34369"/><trkpt lat="-40.121358" lon="-72.343606"/><trkpt lat="-40.121437" lon="-72.343516"/><trkpt lat="-40.12152" lon="-72.343369"/><trkpt lat="-40.121569" lon="-72.343305"/><trkpt lat="-40.121635" lon="-72.343202"/><trkpt lat="-40.12167" lon="-72.3431"/><trkpt lat="-40.121736" lon="-72.342967"/><trkpt lat="-40.121787" lon="-72.342836"/><trkpt lat="-40.121814" lon="-72.342735"/><trkpt lat="-40.121849" lon="-72.342558"/><trkpt lat="-40.121913" lon="-72.342434"/><trkpt lat="-40.121917" lon="-72.342314"/><trkpt lat="-40.122001" lon="-72.342174"/><trkpt lat="-40.122046" lon="-72.342005"/><trkpt lat="-40.122096" lon="-72.341864"/><trkpt lat="-40.122118" lon="-72.341782"/><trkpt lat="-40.122149" lon="-72.341679"/><trkpt lat="-40.122208" lon="-72.34156"/><trkpt lat="-40.122245" lon="-72.341399"/><trkpt lat="-40.12231" lon="-72.341163"/><trkpt lat="-40.122352" lon="-72.341058"/><trkpt lat="-40.122388" lon="-72.340902"/><trkpt lat="-40.12245" lon="-72.340742"/><trkpt lat="-40.122498" lon="-72.340512"/><trkpt lat="-40.122546" lon="-72.340374"/><trkpt lat="-40.122596" lon="-72.340201"/><trkpt lat="-40.122666" lon="-72.340051"/><trkpt lat="-40.122674" lon="-72.339965"/><trkpt lat="-40.122702" lon="-72.339816"/><trkpt lat="-40.122741" lon="-72.3397"/><trkpt lat="-40.122767" lon="-72.339601"/><trkpt lat="-40.122807" lon="-72.33955"/><trkpt lat="-40.122867" lon="-72.339348"/><trkpt lat="-40.122884" lon="-72.339187"/><trkpt lat="-40.122935" lon="-72.339096"/><trkpt lat="-40.123221" lon="-72.338223"/><trkpt lat="-40.122966" lon="-72.338745"/><trkpt lat="-40.123001" lon="-72.338623"/><trkpt lat="-40.122994" lon="-72.338447"/><trkpt lat="-40.12299" lon="-72.338251"/><trkpt lat="-40.122975" lon="-72.337608"/><trkpt lat="-40.122953" lon="-72.337921"/><trkpt lat="-40.122937" lon="-72.337778"/><trkpt lat="-40.122931" lon="-72.337682"/><trkpt lat="-40.122958" lon="-72.337546"/><trkpt lat="-40.122913" lon="-72.337349"/><trkpt lat="-40.122878" lon="-72.337238"/><trkpt lat="-40.122856" lon="-72.337049"/><trkpt lat="-40.122858" lon="-72.336888"/><trkpt lat="-40.122843" lon="-72.336746"/><trkpt lat="-40.122815" lon="-72.336574"/><trkpt lat="-40.122818" lon="-72.336443"/><trkpt lat="-40.122805" lon="-72.336303"/><trkpt lat="-40.122814" lon="-72.336218"/><trkpt lat="-40.122823" lon="-72.336089"/><trkpt lat="-40.123058" lon="-72.336448"/><trkpt lat="-40.122832" lon="-72.335828"/><trkpt lat="-40.122824" lon="-72.335722"/><trkpt lat="-40.122807" lon="-72.335568"/><trkpt lat="-40.122813" lon="-72.335433"/><trkpt lat="-40.122799" lon="-72.335302"/><trkpt lat="-40.122781" lon="-72.335176"/><trkpt lat="-40.122823" lon="-72.335032"/><trkpt lat="-40.122853" lon="-72.334905"/><trkpt lat="-40.12287" lon="-72.334724"/><trkpt lat="-40.122945" lon="-72.334607"/><trkpt lat="-40.122984" lon="-72.334428"/><trkpt lat="-40.123014" lon="-72.33428"/><trkpt lat="-40.123042" lon="-72.334168"/><trkpt lat="-40.123089" lon="-72.334021"/><trkpt lat="-40.123075" lon="-72.333888"/><trkpt lat="-40.123108" lon="-72.333736"/><trkpt lat="-40.123147" lon="-72.333659"/><trkpt lat="-40.123194" lon="-72.333541"/><trkpt lat="-40.123193" lon="-72.333475"/><trkpt lat="-40.123265" lon="-72.333293"/><trkpt lat="-40.123269" lon="-72.333137"/><trkpt lat="-40.123102" lon="-72.333198"/><trkpt lat="-40.123331" lon="-72.332803"/><trkpt lat="-40.123387" lon="-72.332706"/><trkpt lat="-40.123394" lon="-72.332492"/><trkpt lat="-40.123456" lon="-72.332369"/><trkpt lat="-40.123459" lon="-72.332235"/><trkpt lat="-40.123515" lon="-72.332094"/><trkpt lat="-40.123535" lon="-72.331963"/><trkpt lat="-40.123583" lon="-72.331794"/><trkpt lat="-40.12359" lon="-72.331702"/><trkpt lat="-40.123619" lon="-72.33157"/><trkpt lat="-40.123693" lon="-72.331432"/><trkpt lat="-40.123695" lon="-72.3313"/><trkpt lat="-40.123745" lon="-72.331151"/><trkpt lat="-40.123776" lon="-72.331052"/><trkpt lat="-40.12381" lon="-72.330929"/><trkpt lat="-40.123867" lon="-72.330761"/><trkpt lat="-40.123914" lon="-72.330621"/><trkpt lat="-40.123943" lon="-72.330486"/><trkpt lat="-40.124012" lon="-72.330309"/><trkpt lat="-40.124055" lon="-72.330238"/><trkpt lat="-40.124133" lon="-72.330104"/><trkpt lat="-40.124184" lon="-72.330013"/><trkpt lat="-40.124232" lon="-72.329882"/><trkpt lat="-40.124256" lon="-72.329702"/><trkpt lat="-40.12431" lon="-72.329561"/><trkpt lat="-40.124346" lon="-72.329381"/><trkpt lat="-40.124355" lon="-72.32929"/><trkpt lat="-40.124405" lon="-72.329116"/><trkpt lat="-40.1245" lon="-72.328883"/><trkpt lat="-40.124664" lon="-72.328302"/><trkpt lat="-40.124592" lon="-72.328627"/><trkpt lat="-40.124655" lon="-72.328538"/><trkpt lat="-40.124722" lon="-72.328369"/><trkpt lat="-40.124693" lon="-72.328161"/><trkpt lat="-40.124721" lon="-72.32799"/><trkpt lat="-40.1248" lon="-72.327837"/><trkpt lat="-40.124831" lon="-72.327638"/><trkpt lat="-40.124891" lon="-72.327531"/><trkpt lat="-40.124965" lon="-72.327396"/><trkpt lat="-40.125004" lon="-72.327263"/><trkpt lat="-40.125016" lon="-72.327104"/><trkpt lat="-40.124992" lon="-72.326998"/><trkpt lat="-40.125036" lon="-72.326813"/><trkpt lat="-40.125057" lon="-72.326632"/><trkpt lat="-40.125073" lon="-72.326412"/><trkpt lat="-40.12504" lon="-72.326218"/><trkpt lat="-40.125043" lon="-72.326109"/><trkpt lat="-40.125067" lon="-72.325992"/><trkpt lat="-40.125095" lon="-72.325874"/><trkpt lat="-40.12512" lon="-72.325725"/><trkpt lat="-40.125118" lon="-72.325579"/><trkpt lat="-40.125099" lon="-72.325408"/><trkpt lat="-40.125119" lon="-72.325323"/><trkpt lat="-40.125174" lon="-72.32517"/><trkpt lat="-40.125205" lon="-72.325038"/><trkpt lat="-40.125211" lon="-72.324837"/><trkpt lat="-40.125199" lon="-72.324749"/><trkpt lat="-40.125228" lon="-72.324569"/><trkpt lat="-40.125255" lon="-72.324375"/><trkpt lat="-40.125247" lon="-72.324225"/><trkpt lat="-40.125274" lon="-72.324059"/><trkpt lat="-40.125318" lon="-72.323865"/><trkpt lat="-40.125286" lon="-72.323716"/><trkpt lat="-40.125339" lon="-72.323548"/><trkpt lat="-40.125369" lon="-72.323483"/><trkpt lat="-40.125394" lon="-72.323407"/><trkpt lat="-40.125406" lon="-72.323194"/><trkpt lat="-40.125441" lon="-72.323036"/><trkpt lat="-40.125457" lon="-72.322884"/><trkpt lat="-40.125476" lon="-72.322776"/><trkpt lat="-40.12547" lon="-72.322629"/><trkpt lat="-40.125518" lon="-72.322483"/><trkpt lat="-40.12558" lon="-72.322359"/><trkpt lat="-40.125666" lon="-72.322256"/><trkpt lat="-40.125723" lon="-72.322142"/><trkpt lat="-40.125798" lon="-72.322014"/><trkpt lat="-40.125915" lon="-72.321913"/><trkpt lat="-40.125948" lon="-72.321844"/><trkpt lat="-40.126039" lon="-72.321725"/><trkpt lat="-40.126056" lon="-72.322452"/><trkpt lat="-40.126138" lon="-72.321454"/><trkpt lat="-40.126234" lon="-72.321343"/><trkpt lat="-40.126303" lon="-72.321208"/><trkpt lat="-40.126366" lon="-72.32108"/><trkpt lat="-40.12644" lon="-72.321023"/><trkpt lat="-40.126538" lon="-72.320873"/><trkpt lat="-40.126599" lon="-72.320782"/><trkpt lat="-40.126649" lon="-72.320648"/><trkpt lat="-40.126718" lon="-72.320534"/><trkpt lat="-40.126776" lon="-72.320395"/><trkpt lat="-40.126833" lon="-72.320287"/><trkpt lat="-40.126882" lon="-72.320095"/><trkpt lat="-40.126929" lon="-72.319941"/><trkpt lat="-40.126993" lon="-72.319829"/><trkpt lat="-40.126891" lon="-72.319752"/><trkpt lat="-40.127104" lon="-72.31966"/><trkpt lat="-40.127165" lon="-72.319519"/><trkpt lat="-40.12718" lon="-72.319346"/><trkpt lat="-40.12724" lon="-72.319216"/><trkpt lat="-40.127243" lon="-72.319034"/><trkpt lat="-40.127301" lon="-72.318901"/><trkpt lat="-40.127403" lon="-72.318707"/><trkpt lat="-40.127455" lon="-72.318545"/><trkpt lat="-40.127521" lon="-72.318335"/><trkpt lat="-40.127562" lon="-72.318202"/><trkpt lat="-40.127587" lon="-72.318081"/><trkpt lat="-40.127645" lon="-72.317935"/><trkpt lat="-40.127728" lon="-72.317764"/><trkpt lat="-40.127789" lon="-72.317659"/><trkpt lat="-40.127867" lon="-72.317533"/><trkpt lat="-40.127884" lon="-72.317439"/><trkpt lat="-40.127957" lon="-72.31731"/><trkpt lat="-40.127976" lon="-72.317162"/><trkpt lat="-40.128064" lon="-72.31705"/><trkpt lat="-40.128089" lon="-72.31687"/><trkpt lat="-40.128154" lon="-72.316754"/><trkpt lat="-40.128173" lon="-72.31654"/><trkpt lat="-40.128222" lon="-72.316439"/><trkpt lat="-40.12829" lon="-72.316312"/><trkpt lat="-40.128328" lon="-72.316177"/><trkpt lat="-40.128404" lon="-72.316092"/><trkpt lat="-40.12841" lon="-72.315982"/><trkpt lat="-40.128473" lon="-72.315821"/><trkpt lat="-40.128557" lon="-72.315646"/><trkpt lat="-40.128594" lon="-72.315567"/><trkpt lat="-40.12863" lon="-72.315467"/><trkpt lat="-40.128663" lon="-72.315322"/><trkpt lat="-40.128682" lon="-72.315222"/><trkpt lat="-40.128736" lon="-72.315143"/><trkpt lat="-40.128785" lon="-72.315041"/><trkpt lat="-40.128805" lon="-72.31493"/><trkpt lat="-40.128851" lon="-72.314783"/><trkpt lat="-40.128899" lon="-72.314676"/><trkpt lat="-40.128987" lon="-72.314537"/><trkpt lat="-40.128994" lon="-72.314371"/><trkpt lat="-40.129021" lon="-72.314234"/><trkpt lat="-40.129108" lon="-72.314029"/><trkpt lat="-40.129132" lon="-72.313838"/><trkpt lat="-40.129149" lon="-72.313694"/><trkpt lat="-40.12921" lon="-72.313547"/><trkpt lat="-40.129249" lon="-72.313415"/><trkpt lat="-40.129227" lon="-72.313271"/><trkpt lat="-40.129236" lon="-72.313142"/><trkpt lat="-40.12929" lon="-72.31298"/><trkpt lat="-40.129315" lon="-72.312857"/><trkpt lat="-40.129339" lon="-72.31272"/><trkpt lat="-40.129371" lon="-72.312586"/><trkpt lat="-40.129119" lon="-72.312241"/><trkpt lat="-40.129473" lon="-72.312292"/><trkpt lat="-40.1295" lon="-72.312187"/><trkpt lat="-40.129522" lon="-72.312003"/><trkpt lat="-40.129587" lon="-72.311842"/><trkpt lat="-40.129654" lon="-72.311711"/><trkpt lat="-40.129695" lon="-72.31161"/><trkpt lat="-40.129711" lon="-72.31141"/><trkpt lat="-40.129741" lon="-72.311287"/><trkpt lat="-40.129758" lon="-72.31118"/><trkpt lat="-40.129822" lon="-72.311019"/><trkpt lat="-40.129871" lon="-72.310959"/><trkpt lat="-40.129859" lon="-72.310873"/><trkpt lat="-40.129942" lon="-72.310706"/><trkpt lat="-40.129992" lon="-72.310638"/><trkpt lat="-40.129991" lon="-72.310494"/><trkpt lat="-40.130048" lon="-72.310316"/><trkpt lat="-40.130078" lon="-72.310154"/><trkpt lat="-40.130056" lon="-72.309951"/><trkpt lat="-40.130056" lon="-72.30983"/><trkpt lat="-40.130018" lon="-72.309684"/><trkpt lat="-40.130013" lon="-72.309511"/><trkpt lat="-40.130004" lon="-72.309298"/><trkpt lat="-40.130007" lon="-72.309156"/><trkpt lat="-40.130006" lon="-72.309023"/><trkpt lat="-40.12997" lon="-72.308875"/><trkpt lat="-40.129964" lon="-72.308724"/><trkpt lat="-40.12991" lon="-72.308586"/><trkpt lat="-40.129879" lon="-72.308479"/><trkpt lat="-40.129847" lon="-72.308344"/><trkpt lat="-40.12986" lon="-72.308218"/><trkpt lat="-40.129873" lon="-72.308053"/><trkpt lat="-40.129872" lon="-72.307809"/><trkpt lat="-40.12987" lon="-72.307653"/><trkpt lat="-40.129894" lon="-72.307515"/><trkpt lat="-40.129938" lon="-72.30729"/><trkpt lat="-40.129975" lon="-72.307183"/><trkpt lat="-40.129967" lon="-72.30709"/><trkpt lat="-40.130023" lon="-72.306968"/><trkpt lat="-40.13012" lon="-72.306924"/><trkpt lat="-40.130171" lon="-72.306728"/><trkpt lat="-40.130232" lon="-72.306616"/><trkpt lat="-40.130295" lon="-72.306412"/><trkpt lat="-40.130364" lon="-72.306239"/><trkpt lat="-40.130352" lon="-72.3061"/><trkpt lat="-40.130393" lon="-72.305999"/><trkpt lat="-40.130427" lon="-72.305856"/><trkpt lat="-40.130479" lon="-72.305714"/><trkpt lat="-40.130522" lon="-72.305595"/><trkpt lat="-40.130523" lon="-72.305474"/><trkpt lat="-40.130577" lon="-72.305319"/><trkpt lat="-40.130623" lon="-72.305161"/><trkpt lat="-40.130613" lon="-72.305053"/><trkpt lat="-40.130603" lon="-72.304936"/><trkpt lat="-40.13066" lon="-72.304822"/><trkpt lat="-40.13064" lon="-72.304667"/><trkpt lat="-40.130677" lon="-72.30457"/><trkpt lat="-40.130732" lon="-72.304361"/><trkpt lat="-40.130782" lon="-72.304255"/><trkpt lat="-40.130825" lon="-72.30413"/><trkpt lat="-40.13085" lon="-72.304027"/><trkpt lat="-40.13086" lon="-72.303937"/><trkpt lat="-40.130936" lon="-72.303746"/><trkpt lat="-40.130981" lon="-72.303617"/><trkpt lat="-40.131023" lon="-72.303468"/><trkpt lat="-40.131065" lon="-72.303288"/><trkpt lat="-40.131085" lon="-72.303127"/><trkpt lat="-40.131078" lon="-72.303005"/><trkpt lat="-40.131124" lon="-72.302884"/><trkpt lat="-40.131196" lon="-72.302728"/><trkpt lat="-40.131302" lon="-72.302602"/><trkpt lat="-40.131351" lon="-72.302434"/><trkpt lat="-40.131395" lon="-72.302277"/><trkpt lat="-40.131416" lon="-72.302103"/><trkpt lat="-40.131499" lon="-72.301929"/><trkpt lat="-40.131567" lon="-72.3018"/><trkpt lat="-40.131608" lon="-72.301657"/><trkpt lat="-40.131697" lon="-72.30154"/><trkpt lat="-40.131739" lon="-72.301477"/><trkpt lat="-40.13178" lon="-72.30136"/><trkpt lat="-40.131841" lon="-72.301194"/><trkpt lat="-40.131908" lon="-72.301103"/><trkpt lat="-40.131961" lon="-72.300951"/><trkpt lat="-40.132061" lon="-72.300804"/><trkpt lat="-40.132097" lon="-72.300675"/><trkpt lat="-40.132147" lon="-72.300529"/><trkpt lat="-40.1322" lon="-72.300439"/><trkpt lat="-40.132245" lon="-72.300373"/><trkpt lat="-40.132333" lon="-72.300266"/><trkpt lat="-40.132367" lon="-72.300128"/><trkpt lat="-40.132632" lon="-72.300286"/><trkpt lat="-40.132479" lon="-72.29993"/><trkpt lat="-40.132551" lon="-72.299853"/><trkpt lat="-40.132604" lon="-72.299641"/><trkpt lat="-40.132638" lon="-72.299527"/><trkpt lat="-40.132702" lon="-72.299399"/><trkpt lat="-40.132772" lon="-72.299278"/><trkpt lat="-40.132846" lon="-72.299196"/><trkpt lat="-40.132879" lon="-72.299038"/><trkpt lat="-40.132947" lon="-72.298928"/><trkpt lat="-40.132975" lon="-72.298778"/><trkpt lat="-40.133042" lon="-72.29862"/><trkpt lat="-40.133107" lon="-72.298487"/><trkpt lat="-40.133171" lon="-72.29832"/><trkpt lat="-40.133172" lon="-72.29822"/><trkpt lat="-40.133295" lon="-72.298102"/><trkpt lat="-40.133344" lon="-72.298015"/><trkpt lat="-40.133384" lon="-72.297905"/><trkpt lat="-40.133396" lon="-72.297715"/><trkpt lat="-40.133456" lon="-72.297672"/><trkpt lat="-40.133546" lon="-72.297531"/><trkpt lat="-40.133583" lon="-72.297474"/><trkpt lat="-40.133627" lon="-72.297377"/><trkpt lat="-40.133646" lon="-72.297269"/><trkpt lat="-40.133687" lon="-72.297114"/><trkpt lat="-40.133807" lon="-72.296956"/><trkpt lat="-40.133879" lon="-72.296834"/><trkpt lat="-40.133931" lon="-72.296756"/><trkpt lat="-40.133991" lon="-72.296694"/><trkpt lat="-40.134035" lon="-72.296544"/><trkpt lat="-40.134096" lon="-72.296375"/><trkpt lat="-40.13418" lon="-72.296253"/><trkpt lat="-40.1342" lon="-72.296107"/><trkpt lat="-40.134269" lon="-72.29593"/><trkpt lat="-40.134311" lon="-72.295806"/><trkpt lat="-40.134374" lon="-72.29567"/><trkpt lat="-40.134434" lon="-72.295556"/><trkpt lat="-40.134506" lon="-72.295444"/><trkpt lat="-40.134595" lon="-72.295347"/><trkpt lat="-40.134665" lon="-72.295218"/><trkpt lat="-40.134706" lon="-72.295077"/><trkpt lat="-40.134804" lon="-72.294977"/><trkpt lat="-40.134905" lon="-72.294841"/><trkpt lat="-40.134993" lon="-72.294738"/><trkpt lat="-40.135031" lon="-72.29461"/><trkpt lat="-40.135089" lon="-72.29445"/><trkpt lat="-40.135112" lon="-72.294317"/><trkpt lat="-40.135176" lon="-72.294232"/><trkpt lat="-40.135229" lon="-72.294108"/><trkpt lat="-40.135316" lon="-72.293956"/><trkpt lat="-40.135714" lon="-72.293615"/><trkpt lat="-40.135459" lon="-72.29366"/><trkpt lat="-40.135536" lon="-72.293534"/><trkpt lat="-40.135602" lon="-72.2934"/><trkpt lat="-40.135666" lon="-72.293308"/><trkpt lat="-40.135701" lon="-72.293236"/><trkpt lat="-40.135766" lon="-72.293119"/><trkpt lat="-40.135833" lon="-72.292988"/><trkpt lat="-40.135879" lon="-72.292842"/><trkpt lat="-40.135923" lon="-72.292744"/><trkpt lat="-40.135964" lon="-72.292622"/><trkpt lat="-40.136016" lon="-72.292476"/><trkpt lat="-40.136121" lon="-72.292355"/><trkpt lat="-40.136168" lon="-72.292226"/><trkpt lat="-40.136247" lon="-72.29212"/><trkpt lat="-40.136293" lon="-72.292031"/><trkpt lat="-40.136363" lon="-72.291927"/><trkpt lat="-40.136458" lon="-72.291833"/><trkpt lat="-40.136511" lon="-72.291696"/><trkpt lat="-40.136566" lon="-72.291584"/><trkpt lat="-40.136645" lon="-72.29143"/><trkpt lat="-40.136653" lon="-72.291342"/><trkpt lat="-40.136942" lon="-72.291209"/><trkpt lat="-40.136767" lon="-72.291046"/><trkpt lat="-40.136834" lon="-72.290959"/><trkpt lat="-40.136886" lon="-72.290823"/><trkpt lat="-40.136934" lon="-72.290694"/><trkpt lat="-40.137021" lon="-72.290519"/><trkpt lat="-40.137073" lon="-72.290406"/><trkpt lat="-40.13714" lon="-72.290294"/><trkpt lat="-40.137223" lon="-72.29015"/><trkpt lat="-40.137268" lon="-72.289992"/><trkpt lat="-40.137341" lon="-72.289821"/><trkpt lat="-40.137383" lon="-72.289645"/><trkpt lat="-40.137415" lon="-72.289524"/><trkpt lat="-40.137515" lon="-72.28936"/><trkpt lat="-40.137548" lon="-72.289258"/><trkpt lat="-40.137616" lon="-72.289181"/><trkpt lat="-40.137679" lon="-72.289036"/><trkpt lat="-40.13774" lon="-72.288939"/><trkpt lat="-40.1378" lon="-72.288764"/><trkpt lat="-40.137865" lon="-72.288628"/><trkpt lat="-40.13794" lon="-72.288471"/><trkpt lat="-40.138015" lon="-72.288328"/><trkpt lat="-40.138109" lon="-72.288216"/><trkpt lat="-40.138169" lon="-72.288067"/><trkpt lat="-40.138269" lon="-72.287899"/><trkpt lat="-40.138311" lon="-72.28778"/><trkpt lat="-40.138371" lon="-72.287626"/><trkpt lat="-40.138428" lon="-72.287507"/><trkpt lat="-40.13847" lon="-72.287424"/><trkpt lat="-40.138293" lon="-72.286876"/><trkpt lat="-40.138552" lon="-72.287152"/><trkpt lat="-40.138633" lon="-72.287077"/><trkpt lat="-40.138663" lon="-72.286954"/><trkpt lat="-40.138706" lon="-72.286817"/><trkpt lat="-40.138756" lon="-72.286658"/><trkpt lat="-40.138832" lon="-72.286454"/><trkpt lat="-40.138881" lon="-72.286332"/><trkpt lat="-40.13896" lon="-72.28617"/><trkpt lat="-40.139019" lon="-72.28602"/><trkpt lat="-40.139093" lon="-72.285908"/><trkpt lat="-40.139151" lon="-72.285706"/><trkpt lat="-40.1392" lon="-72.285593"/><trkpt lat="-40.139251" lon="-72.2855"/><trkpt lat="-40.139293" lon="-72.285375"/><trkpt lat="-40.139304" lon="-72.28518"/><trkpt lat="-40.139362" lon="-72.285007"/><trkpt lat="-40.1394" lon="-72.284807"/><trkpt lat="-40.139444" lon="-72.284642"/><trkpt lat="-40.139454" lon="-72.284539"/><trkpt lat="-40.139515" lon="-72.284446"/><trkpt lat="-40.139546" lon="-72.284316"/><trkpt lat="-40.139577" lon="-72.284173"/><trkpt lat="-40.139471" lon="-72.283841"/><trkpt lat="-40.139604" lon="-72.284011"/><trkpt lat="-40.139663" lon="-72.283833"/><trkpt lat="-40.139751" lon="-72.283686"/><trkpt lat="-40.13982" lon="-72.283493"/><trkpt lat="-40.139873" lon="-72.283336"/><trkpt lat="-40.139923" lon="-72.28324"/><trkpt lat="-40.139946" lon="-72.283117"/><trkpt lat="-40.139971" lon="-72.282942"/><trkpt lat="-40.140023" lon="-72.282813"/><trkpt lat="-40.140046" lon="-72.282709"/><trkpt lat="-40.140085" lon="-72.282569"/><trkpt lat="-40.140145" lon="-72.282347"/><trkpt lat="-40.14021" lon="-72.2822"/><trkpt lat="-40.140249" lon="-72.282007"/><trkpt lat="-40.140267" lon="-72.281815"/><trkpt lat="-40.140294" lon="-72.281749"/><trkpt lat="-40.140374" lon="-72.281606"/><trkpt lat="-40.140414" lon="-72.281468"/><trkpt lat="-40.140424" lon="-72.281361"/><trkpt lat="-40.140486" lon="-72.28121"/><trkpt lat="-40.140538" lon="-72.281028"/><trkpt lat="-40.140539" lon="-72.280908"/><trkpt lat="-40.14057" lon="-72.280774"/><trkpt lat="-40.140588" lon="-72.280633"/><trkpt lat="-40.140633" lon="-72.280535"/><trkpt lat="-40.14068" lon="-72.280422"/><trkpt lat="-40.140755" lon="-72.280281"/><trkpt lat="-40.140786" lon="-72.280194"/><trkpt lat="-40.140825" lon="-72.280038"/><trkpt lat="-40.140891" lon="-72.279903"/><trkpt lat="-40.140984" lon="-72.279763"/><trkpt lat="-40.140976" lon="-72.279674"/><trkpt lat="-40.141072" lon="-72.279559"/><trkpt lat="-40.141164" lon="-72.279434"/><trkpt lat="-40.141205" lon="-72.279258"/><trkpt lat="-40.141288" lon="-72.279289"/><trkpt lat="-40.141335" lon="-72.278938"/><trkpt lat="-40.141418" lon="-72.278819"/><trkpt lat="-40.141443" lon="-72.278679"/><trkpt lat="-40.141441" lon="-72.278656"/><trkpt lat="-40.141523" lon="-72.278523"/><trkpt lat="-40.141592" lon="-72.278358"/><trkpt lat="-40.141578" lon="-72.278277"/><trkpt lat="-40.141667" lon="-72.278226"/><trkpt lat="-40.141743" lon="-72.278079"/><trkpt lat="-40.14177" lon="-72.277907"/><trkpt lat="-40.141818" lon="-72.277769"/><trkpt lat="-40.141889" lon="-72.277695"/><trkpt lat="-40.141905" lon="-72.277601"/><trkpt lat="-40.141982" lon="-72.277473"/><trkpt lat="-40.142023" lon="-72.277405"/><trkpt lat="-40.142069" lon="-72.277365"/><trkpt lat="-40.142148" lon="-72.277245"/><trkpt lat="-40.142227" lon="-72.277073"/><trkpt lat="-40.142244" lon="-72.276925"/><trkpt lat="-40.142304" lon="-72.276799"/><trkpt lat="-40.142374" lon="-72.276646"/><trkpt lat="-40.142469" lon="-72.276468"/><trkpt lat="-40.142489" lon="-72.276393"/><trkpt lat="-40.142577" lon="-72.276293"/><trkpt lat="-40.14264" lon="-72.27614"/><trkpt lat="-40.142692" lon="-72.275918"/><trkpt lat="-40.142745" lon="-72.27575"/><trkpt lat="-40.142797" lon="-72.275599"/><trkpt lat="-40.142827" lon="-72.275484"/><trkpt lat="-40.142876" lon="-72.275337"/><trkpt lat="-40.142939" lon="-72.275195"/><trkpt lat="-40.142987" lon="-72.275093"/><trkpt lat="-40.143014" lon="-72.274952"/><trkpt lat="-40.143046" lon="-72.274843"/><trkpt lat="-40.143162" lon="-72.274797"/><trkpt lat="-40.143239" lon="-72.274615"/><trkpt lat="-40.14334" lon="-72.27443"/><trkpt lat="-40.1435" lon="-72.274531"/><trkpt lat="-40.143487" lon="-72.274071"/><trkpt lat="-40.143563" lon="-72.273951"/><trkpt lat="-40.143632" lon="-72.273829"/><trkpt lat="-40.143362" lon="-72.272584"/><trkpt lat="-40.143733" lon="-72.273579"/><trkpt lat="-40.143827" lon="-72.273441"/><trkpt lat="-40.143899" lon="-72.273322"/><trkpt lat="-40.143936" lon="-72.273181"/><trkpt lat="-40.143993" lon="-72.273074"/><trkpt lat="-40.144042" lon="-72.272953"/><trkpt lat="-40.144076" lon="-72.272783"/><trkpt lat="-40.144162" lon="-72.272647"/><trkpt lat="-40.144091" lon="-72.272693"/><trkpt lat="-40.144286" lon="-72.272316"/><trkpt lat="-40.144373" lon="-72.272231"/><trkpt lat="-40.144407" lon="-72.272118"/><trkpt lat="-40.144465" lon="-72.27201"/><trkpt lat="-40.144552" lon="-72.271845"/><trkpt lat="-40.144631" lon="-72.271713"/><trkpt lat="-40.144723" lon="-72.271655"/><trkpt lat="-40.14477" lon="-72.271501"/><trkpt lat="-40.144805" lon="-72.271352"/><trkpt lat="-40.144867" lon="-72.271257"/><trkpt lat="-40.144892" lon="-72.271132"/><trkpt lat="-40.144963" lon="-72.270965"/><trkpt lat="-40.145075" lon="-72.270853"/><trkpt lat="-40.145072" lon="-72.270678"/><trkpt lat="-40.145128" lon="-72.270552"/><trkpt lat="-40.145165" lon="-72.270402"/><trkpt lat="-40.145205" lon="-72.2702"/><trkpt lat="-40.14524" lon="-72.270091"/><trkpt lat="-40.145234" lon="-72.269958"/><trkpt lat="-40.145292" lon="-72.269835"/><trkpt lat="-40.145358" lon="-72.269701"/><trkpt lat="-40.145335" lon="-72.269561"/><trkpt lat="-40.145314" lon="-72.269483"/><trkpt lat="-40.145305" lon="-72.269322"/><trkpt lat="-40.1453" lon="-72.26923"/><trkpt lat="-40.145289" lon="-72.269025"/><trkpt lat="-40.145301" lon="-72.268887"/><trkpt lat="-40.145259" lon="-72.268721"/><trkpt lat="-40.145236" lon="-72.268575"/><trkpt lat="-40.145239" lon="-72.268444"/><trkpt lat="-40.145225" lon="-72.268309"/><trkpt lat="-40.145227" lon="-72.268231"/><trkpt lat="-40.145185" lon="-72.268072"/><trkpt lat="-40.145152" lon="-72.267913"/><trkpt lat="-40.145115" lon="-72.267797"/><trkpt lat="-40.145125" lon="-72.267636"/><trkpt lat="-40.145086" lon="-72.267425"/><trkpt lat="-40.145063" lon="-72.267227"/><trkpt lat="-40.144997" lon="-72.267089"/><trkpt lat="-40.144968" lon="-72.26699"/><trkpt lat="-40.14492" lon="-72.266927"/><trkpt lat="-40.144865" lon="-72.266764"/><trkpt lat="-40.144839" lon="-72.266665"/><trkpt lat="-40.144798" lon="-72.266581"/><trkpt lat="-40.144752" lon="-72.266437"/><trkpt lat="-40.144697" lon="-72.266242"/><trkpt lat="-40.14466" lon="-72.266091"/><trkpt lat="-40.144618" lon="-72.265913"/><trkpt lat="-40.144543" lon="-72.265754"/><trkpt lat="-40.144512" lon="-72.265614"/><trkpt lat="-40.144476" lon="-72.265461"/><trkpt lat="-40.144432" lon="-72.265314"/><trkpt lat="-40.144373" lon="-72.265193"/><trkpt lat="-40.144352" lon="-72.265046"/><trkpt lat="-40.144327" lon="-72.264916"/><trkpt lat="-40.144291" lon="-72.264787"/><trkpt lat="-40.144241" lon="-72.264629"/><trkpt lat="-40.144175" lon="-72.264443"/><trkpt lat="-40.144151" lon="-72.264384"/><trkpt lat="-40.144107" lon="-72.264237"/><trkpt lat="-40.144086" lon="-72.264059"/><trkpt lat="-40.144025" lon="-72.263975"/><trkpt lat="-40.144019" lon="-72.263812"/><trkpt lat="-40.143998" lon="-72.263693"/><trkpt lat="-40.143957" lon="-72.263552"/><trkpt lat="-40.143948" lon="-72.263386"/><trkpt lat="-40.143899" lon="-72.263194"/><trkpt lat="-40.14424" lon="-72.26326"/><trkpt lat="-40.143875" lon="-72.262961"/><trkpt lat="-40.143839" lon="-72.262779"/><trkpt lat="-40.143808" lon="-72.262687"/><trkpt lat="-40.14378" lon="-72.262498"/><trkpt lat="-40.143739" lon="-72.262401"/><trkpt lat="-40.143697" lon="-72.262262"/><trkpt lat="-40.143608" lon="-72.262103"/><trkpt lat="-40.143588" lon="-72.26196"/><trkpt lat="-40.143531" lon="-72.261823"/><trkpt lat="-40.143469" lon="-72.261715"/><trkpt lat="-40.143429" lon="-72.261611"/><trkpt lat="-40.143352" lon="-72.261485"/><trkpt lat="-40.143329" lon="-72.261422"/><trkpt lat="-40.143259" lon="-72.261329"/><trkpt lat="-40.143205" lon="-72.261216"/><trkpt lat="-40.143153" lon="-72.261121"/><trkpt lat="-40.14307" lon="-72.261029"/><trkpt lat="-40.143012" lon="-72.260939"/><trkpt lat="-40.142974" lon="-72.26078"/><trkpt lat="-40.142878" lon="-72.260679"/><trkpt lat="-40.142831" lon="-72.260589"/><trkpt lat="-40.14281" lon="-72.26048"/><trkpt lat="-40.142763" lon="-72.260421"/><trkpt lat="-40.142661" lon="-72.260308"/><trkpt lat="-40.142569" lon="-72.260197"/><trkpt lat="-40.142492" lon="-72.260099"/><trkpt lat="-40.142429" lon="-72.260029"/><trkpt lat="-40.142302" lon="-72.259948"/><trkpt lat="-40.142162" lon="-72.259844"/><trkpt lat="-40.142069" lon="-72.259737"/><trkpt lat="-40.141969" lon="-72.25965"/><trkpt lat="-40.141854" lon="-72.259504"/><trkpt lat="-40.141722" lon="-72.259378"/><trkpt lat="-40.141674" lon="-72.259233"/><trkpt lat="-40.141601" lon="-72.259099"/><trkpt lat="-40.141545" lon="-72.259025"/><trkpt lat="-40.141556" lon="-72.258907"/><trkpt lat="-40.141527" lon="-72.258792"/><trkpt lat="-40.14146" lon="-72.258654"/><trkpt lat="-40.141441" lon="-72.258558"/><trkpt lat="-40.141415" lon="-72.258374"/><trkpt lat="-40.141362" lon="-72.258248"/><trkpt lat="-40.141289" lon="-72.258109"/><trkpt lat="-40.141239" lon="-72.257994"/><trkpt lat="-40.141222" lon="-72.257825"/><trkpt lat="-40.141187" lon="-72.257663"/><trkpt lat="-40.141183" lon="-72.257519"/><trkpt lat="-40.14109" lon="-72.257287"/><trkpt lat="-40.141128" lon="-72.257215"/><trkpt lat="-40.14116" lon="-72.257056"/><trkpt lat="-40.141197" lon="-72.256849"/><trkpt lat="-40.141181" lon="-72.256709"/><trkpt lat="-40.141218" lon="-72.256614"/><trkpt lat="-40.141215" lon="-72.256411"/><trkpt lat="-40.141218" lon="-72.256294"/><trkpt lat="-40.141274" lon="-72.256201"/><trkpt lat="-40.141306" lon="-72.256096"/><trkpt lat="-40.141373" lon="-72.256025"/><trkpt lat="-40.141425" lon="-72.255971"/><trkpt lat="-40.141513" lon="-72.255852"/><trkpt lat="-40.141559" lon="-72.255641"/><trkpt lat="-40.141609" lon="-72.255497"/><trkpt lat="-40.141611" lon="-72.255359"/><trkpt lat="-40.141677" lon="-72.255166"/><trkpt lat="-40.141708" lon="-72.255041"/><trkpt lat="-40.141755" lon="-72.254904"/><trkpt lat="-40.141842" lon="-72.254837"/><trkpt lat="-40.14189" lon="-72.254721"/><trkpt lat="-40.141971" lon="-72.254636"/><trkpt lat="-40.142041" lon="-72.25458"/><trkpt lat="-40.142099" lon="-72.254436"/><trkpt lat="-40.142194" lon="-72.254318"/><trkpt lat="-40.14229" lon="-72.254251"/><trkpt lat="-40.142362" lon="-72.254143"/><trkpt lat="-40.142419" lon="-72.254042"/><trkpt lat="-40.142507" lon="-72.253976"/><trkpt lat="-40.1426" lon="-72.253858"/><trkpt lat="-40.142736" lon="-72.253724"/><trkpt lat="-40.142833" lon="-72.253614"/><trkpt lat="-40.142939" lon="-72.253554"/><trkpt lat="-40.143041" lon="-72.253486"/><trkpt lat="-40.143153" lon="-72.253414"/><trkpt lat="-40.143244" lon="-72.253298"/><trkpt lat="-40.143322" lon="-72.253292"/><trkpt lat="-40.143414" lon="-72.253224"/><trkpt lat="-40.143328" lon="-72.253022"/><trkpt lat="-40.143606" lon="-72.253068"/><trkpt lat="-40.143718" lon="-72.253046"/><trkpt lat="-40.14384" lon="-72.252995"/><trkpt lat="-40.143934" lon="-72.252947"/><trkpt lat="-40.144053" lon="-72.25292"/><trkpt lat="-40.144178" lon="-72.252877"/><trkpt lat="-40.14425" lon="-72.2528"/><trkpt lat="-40.144356" lon="-72.252729"/><trkpt lat="-40.144492" lon="-72.252652"/><trkpt lat="-40.144608" lon="-72.252582"/><trkpt lat="-40.144695" lon="-72.252552"/><trkpt lat="-40.144783" lon="-72.252493"/><trkpt lat="-40.144955" lon="-72.252435"/><trkpt lat="-40.145049" lon="-72.252442"/><trkpt lat="-40.145188" lon="-72.252457"/><trkpt lat="-40.145263" lon="-72.252479"/><trkpt lat="-40.145381" lon="-72.252486"/><trkpt lat="-40.145519" lon="-72.252487"/><trkpt lat="-40.145635" lon="-72.252463"/><trkpt lat="-40.145739" lon="-72.252472"/><trkpt lat="-40.145839" lon="-72.252517"/><trkpt lat="-40.145926" lon="-72.252546"/><trkpt lat="-40.146015" lon="-72.252564"/><trkpt lat="-40.146151" lon="-72.252619"/><trkpt lat="-40.146221" lon="-72.252638"/><trkpt lat="-40.14633" lon="-72.25264"/><trkpt lat="-40.146429" lon="-72.252618"/><trkpt lat="-40.146494" lon="-72.252619"/><trkpt lat="-40.146636" lon="-72.252606"/><trkpt lat="-40.146742" lon="-72.252608"/><trkpt lat="-40.146795" lon="-72.252591"/><trkpt lat="-40.146933" lon="-72.252586"/><trkpt lat="-40.147037" lon="-72.25258"/><trkpt lat="-40.147148" lon="-72.25261"/><trkpt lat="-40.147235" lon="-72.252635"/><trkpt lat="-40.14732" lon="-72.252642"/><trkpt lat="-40.147406" lon="-72.252655"/><trkpt lat="-40.147536" lon="-72.25264"/><trkpt lat="-40.147677" lon="-72.252719"/><trkpt lat="-40.147787" lon="-72.252774"/><trkpt lat="-40.147904" lon="-72.252823"/><trkpt lat="-40.147989" lon="-72.252877"/><trkpt lat="-40.148089" lon="-72.252861"/><trkpt lat="-40.14818" lon="-72.252866"/><trkpt lat="-40.148304" lon="-72.252912"/><trkpt lat="-40.148436" lon="-72.252917"/><trkpt lat="-40.148525" lon="-72.252889"/><trkpt lat="-40.148655" lon="-72.25295"/><trkpt lat="-40.148791" lon="-72.253"/><trkpt lat="-40.148905" lon="-72.25306"/><trkpt lat="-40.148997" lon="-72.253151"/><trkpt lat="-40.149414" lon="-72.253221"/><trkpt lat="-40.149183" lon="-72.253197"/><trkpt lat="-40.149276" lon="-72.25329"/><trkpt lat="-40.14944" lon="-72.25334"/><trkpt lat="-40.149573" lon="-72.253336"/><trkpt lat="-40.149669" lon="-72.253427"/><trkpt lat="-40.149752" lon="-72.253457"/><trkpt lat="-40.149866" lon="-72.253471"/><trkpt lat="-40.149965" lon="-72.253434"/><trkpt lat="-40.150023" lon="-72.253445"/><trkpt lat="-40.15015" lon="-72.253555"/><trkpt lat="-40.150247" lon="-72.253557"/><trkpt lat="-40.150375" lon="-72.253529"/><trkpt lat="-40.150477" lon="-72.253544"/><trkpt lat="-40.150656" lon="-72.25356"/><trkpt lat="-40.150733" lon="-72.253599"/><trkpt lat="-40.150877" lon="-72.253635"/><trkpt lat="-40.150999" lon="-72.25361"/><trkpt lat="-40.151147" lon="-72.253694"/><trkpt lat="-40.151297" lon="-72.253721"/><trkpt lat="-40.151382" lon="-72.253714"/><trkpt lat="-40.151461" lon="-72.253731"/><trkpt lat="-40.151554" lon="-72.253712"/><trkpt lat="-40.151698" lon="-72.253685"/><trkpt lat="-40.15182" lon="-72.253697"/><trkpt lat="-40.151936" lon="-72.253674"/><trkpt lat="-40.152029" lon="-72.253639"/><trkpt lat="-40.152161" lon="-72.253647"/><trkpt lat="-40.152264" lon="-72.25364"/><trkpt lat="-40.15235" lon="-72.253644"/><trkpt lat="-40.152477" lon="-72.253672"/><trkpt lat="-40.152634" lon="-72.253678"/><trkpt lat="-40.152711" lon="-72.253657"/><trkpt lat="-40.152722" lon="-72.253627"/><trkpt lat="-40.152933" lon="-72.253721"/><trkpt lat="-40.153055" lon="-72.25369"/><trkpt lat="-40.153179" lon="-72.253646"/><trkpt lat="-40.153291" lon="-72.25363"/><trkpt lat="-40.153432" lon="-72.253631"/><trkpt lat="-40.153581" lon="-72.253624"/><trkpt lat="-40.153725" lon="-72.253625"/><trkpt lat="-40.153832" lon="-72.253666"/><trkpt lat="-40.153934" lon="-72.253679"/><trkpt lat="-40.15407" lon="-72.253706"/><trkpt lat="-40.154171" lon="-72.253712"/><trkpt lat="-40.154284" lon="-72.253686"/><trkpt lat="-40.154421" lon="-72.253692"/><trkpt lat="-40.154537" lon="-72.25369"/><trkpt lat="-40.154642" lon="-72.253712"/><trkpt lat="-40.154723" lon="-72.25372"/><trkpt lat="-40.154839" lon="-72.253673"/><trkpt lat="-40.154942" lon="-72.253636"/><trkpt lat="-40.155128" lon="-72.25371"/><trkpt lat="-40.155236" lon="-72.25357"/><trkpt lat="-40.155365" lon="-72.253581"/><trkpt lat="-40.155434" lon="-72.253596"/><trkpt lat="-40.15551" lon="-72.253638"/><trkpt lat="-40.155634" lon="-72.253628"/><trkpt lat="-40.155727" lon="-72.253587"/><trkpt lat="-40.155851" lon="-72.253565"/><trkpt lat="-40.155918" lon="-72.253595"/><trkpt lat="-40.156067" lon="-72.253596"/><trkpt lat="-40.156135" lon="-72.253569"/><trkpt lat="-40.156212" lon="-72.253527"/><trkpt lat="-40.156287" lon="-72.253521"/><trkpt lat="-40.156425" lon="-72.253442"/><trkpt lat="-40.156508" lon="-72.253407"/><trkpt lat="-40.156623" lon="-72.253426"/><trkpt lat="-40.156705" lon="-72.253442"/><trkpt lat="-40.156791" lon="-72.253493"/><trkpt lat="-40.156945" lon="-72.253545"/><trkpt lat="-40.157068" lon="-72.25348"/><trkpt lat="-40.157427" lon="-72.253398"/><trkpt lat="-40.157245" lon="-72.253442"/><trkpt lat="-40.157335" lon="-72.253391"/><trkpt lat="-40.157425" lon="-72.253388"/><trkpt lat="-40.15759" lon="-72.25335"/><trkpt lat="-40.157705" lon="-72.253285"/><trkpt lat="-40.157796" lon="-72.253263"/><trkpt lat="-40.157895" lon="-72.253258"/><trkpt lat="-40.157974" lon="-72.253278"/><trkpt lat="-40.158089" lon="-72.25326"/><trkpt lat="-40.15822" lon="-72.253255"/><trkpt lat="-40.158358" lon="-72.253241"/><trkpt lat="-40.158462" lon="-72.253241"/><trkpt lat="-40.15859" lon="-72.253224"/><trkpt lat="-40.158686" lon="-72.253193"/><trkpt lat="-40.158763" lon="-72.253203"/><trkpt lat="-40.158834" lon="-72.253126"/><trkpt lat="-40.158906" lon="-72.253122"/><trkpt lat="-40.158949" lon="-72.253152"/><trkpt lat="-40.159087" lon="-72.253114"/><trkpt lat="-40.159212" lon="-72.253078"/><trkpt lat="-40.159294" lon="-72.253057"/><trkpt lat="-40.159428" lon="-72.253015"/><trkpt lat="-40.159582" lon="-72.252946"/><trkpt lat="-40.159725" lon="-72.252946"/><trkpt lat="-40.15983" lon="-72.252916"/><trkpt lat="-40.159978" lon="-72.252925"/><trkpt lat="-40.160022" lon="-72.252934"/><trkpt lat="-40.160156" lon="-72.252945"/><trkpt lat="-40.160275" lon="-72.252921"/><trkpt lat="-40.160411" lon="-72.252878"/><trkpt lat="-40.160515" lon="-72.252885"/><trkpt lat="-40.16062" lon="-72.252839"/><trkpt lat="-40.160749" lon="-72.252741"/><trkpt lat="-40.160873" lon="-72.252716"/><trkpt lat="-40.160975" lon="-72.25268"/><trkpt lat="-40.161154" lon="-72.252671"/><trkpt lat="-40.161307" lon="-72.252645"/><trkpt lat="-40.161451" lon="-72.252599"/><trkpt lat="-40.161577" lon="-72.252632"/><trkpt lat="-40.161697" lon="-72.252494"/><trkpt lat="-40.161807" lon="-72.252437"/><trkpt lat="-40.161883" lon="-72.252422"/><trkpt lat="-40.161994" lon="-72.252422"/><trkpt lat="-40.162111" lon="-72.252375"/><trkpt lat="-40.162197" lon="-72.252397"/><trkpt lat="-40.162332" lon="-72.252375"/><trkpt lat="-40.162439" lon="-72.252344"/><trkpt lat="-40.162523" lon="-72.252289"/><trkpt lat="-40.162591" lon="-72.252273"/><trkpt lat="-40.162737" lon="-72.2523"/><trkpt lat="-40.162709" lon="-72.252221"/><trkpt lat="-40.162979" lon="-72.25248"/><trkpt lat="-40.163137" lon="-72.252547"/><trkpt lat="-40.163118" lon="-72.252938"/><trkpt lat="-40.163365" lon="-72.252645"/><trkpt lat="-40.163434" lon="-72.252755"/><trkpt lat="-40.163496" lon="-72.252817"/><trkpt lat="-40.163565" lon="-72.252884"/><trkpt lat="-40.163496" lon="-72.252538"/><trkpt lat="-40.163719" lon="-72.253045"/><trkpt lat="-40.163804" lon="-72.253168"/><trkpt lat="-40.163886" lon="-72.25331"/><trkpt lat="-40.163951" lon="-72.253406"/><trkpt lat="-40.164002" lon="-72.253457"/><trkpt lat="-40.164051" lon="-72.253558"/><trkpt lat="-40.164158" lon="-72.253682"/><trkpt lat="-40.164265" lon="-72.253753"/><trkpt lat="-40.164398" lon="-72.253878"/><trkpt lat="-40.164522" lon="-72.253941"/><trkpt lat="-40.164565" lon="-72.254038"/><trkpt lat="-40.164682" lon="-72.254113"/><trkpt lat="-40.164725" lon="-72.254099"/><trkpt lat="-40.164855" lon="-72.254131"/><trkpt lat="-40.164908" lon="-72.254224"/><trkpt lat="-40.165007" lon="-72.254315"/><trkpt lat="-40.165112" lon="-72.25435"/><trkpt lat="-40.165203" lon="-72.254463"/><trkpt lat="-40.165294" lon="-72.254604"/><trkpt lat="-40.1654" lon="-72.254718"/><trkpt lat="-40.165513" lon="-72.254805"/><trkpt lat="-40.165699" lon="-72.254912"/><trkpt lat="-40.165794" lon="-72.254993"/><trkpt lat="-40.165907" lon="-72.254973"/><trkpt lat="-40.166026" lon="-72.255056"/><trkpt lat="-40.166379" lon="-72.254914"/><trkpt lat="-40.166213" lon="-72.255088"/><trkpt lat="-40.166361" lon="-72.255085"/><trkpt lat="-40.166516" lon="-72.255112"/><trkpt lat="-40.166625" lon="-72.255081"/><trkpt lat="-40.166705" lon="-72.255075"/><trkpt lat="-40.166796" lon="-72.255122"/><trkpt lat="-40.166882" lon="-72.25521"/><trkpt lat="-40.166991" lon="-72.255252"/><trkpt lat="-40.167131" lon="-72.255327"/><trkpt lat="-40.167249" lon="-72.25542"/><trkpt lat="-40.167389" lon="-72.255412"/><trkpt lat="-40.167508" lon="-72.255495"/><trkpt lat="-40.167604" lon="-72.255498"/><trkpt lat="-40.167726" lon="-72.255538"/><trkpt lat="-40.167786" lon="-72.25556"/><trkpt lat="-40.167891" lon="-72.255603"/><trkpt lat="-40.167937" lon="-72.255669"/><trkpt lat="-40.168045" lon="-72.255713"/><trkpt lat="-40.168187" lon="-72.255809"/><trkpt lat="-40.168296" lon="-72.255841"/><trkpt lat="-40.168361" lon="-72.255813"/><trkpt lat="-40.168457" lon="-72.255861"/><trkpt lat="-40.168493" lon="-72.255962"/><trkpt lat="-40.16859" lon="-72.256032"/><trkpt lat="-40.168737" lon="-72.2561"/><trkpt lat="-40.168832" lon="-72.256127"/><trkpt lat="-40.168937" lon="-72.256104"/><trkpt lat="-40.169015" lon="-72.256142"/><trkpt lat="-40.16918" lon="-72.25612"/><trkpt lat="-40.169303" lon="-72.25617"/><trkpt lat="-40.169401" lon="-72.256152"/><trkpt lat="-40.169551" lon="-72.256234"/><trkpt lat="-40.169693" lon="-72.256329"/><trkpt lat="-40.169808" lon="-72.256349"/><trkpt lat="-40.169907" lon="-72.256342"/><trkpt lat="-40.169971" lon="-72.256383"/><trkpt lat="-40.170105" lon="-72.256425"/><trkpt lat="-40.170241" lon="-72.256364"/><trkpt lat="-40.170402" lon="-72.256384"/><trkpt lat="-40.170503" lon="-72.256406"/><trkpt lat="-40.170614" lon="-72.256404"/><trkpt lat="-40.170726" lon="-72.256436"/><trkpt lat="-40.17084" lon="-72.256463"/><trkpt lat="-40.170956" lon="-72.256529"/><trkpt lat="-40.171109" lon="-72.256524"/><trkpt lat="-40.17124" lon="-72.256575"/><trkpt lat="-40.171324" lon="-72.256551"/><trkpt lat="-40.171417" lon="-72.256539"/><trkpt lat="-40.171518" lon="-72.256553"/><trkpt lat="-40.171661" lon="-72.256569"/><trkpt lat="-40.171799" lon="-72.256631"/><trkpt lat="-40.171945" lon="-72.256594"/><trkpt lat="-40.172046" lon="-72.256631"/><trkpt lat="-40.172175" lon="-72.256688"/><trkpt lat="-40.172298" lon="-72.256713"/><trkpt lat="-40.172451" lon="-72.256716"/><trkpt lat="-40.172548" lon="-72.256739"/><trkpt lat="-40.172735" lon="-72.256753"/><trkpt lat="-40.172801" lon="-72.256812"/><trkpt lat="-40.172894" lon="-72.256841"/><trkpt lat="-40.173002" lon="-72.256895"/><trkpt lat="-40.173116" lon="-72.256948"/><trkpt lat="-40.1732" lon="-72.256955"/><trkpt lat="-40.173273" lon="-72.256948"/><trkpt lat="-40.173412" lon="-72.256926"/><trkpt lat="-40.173545" lon="-72.257001"/><trkpt lat="-40.173667" lon="-72.257004"/><trkpt lat="-40.173741" lon="-72.257042"/><trkpt lat="-40.173853" lon="-72.257083"/><trkpt lat="-40.173933" lon="-72.25709"/><trkpt lat="-40.174028" lon="-72.25714"/><trkpt lat="-40.17417" lon="-72.257151"/><trkpt lat="-40.174271" lon="-72.257157"/><trkpt lat="-40.174386" lon="-72.257133"/><trkpt lat="-40.174485" lon="-72.257126"/><trkpt lat="-40.174582" lon="-72.257121"/><trkpt lat="-40.174644" lon="-72.257097"/><trkpt lat="-40.174742" lon="-72.257087"/><trkpt lat="-40.174831" lon="-72.256997"/><trkpt lat="-40.174916" lon="-72.256919"/><trkpt lat="-40.175008" lon="-72.256846"/><trkpt lat="-40.175104" lon="-72.256792"/><trkpt lat="-40.175214" lon="-72.256792"/><trkpt lat="-40.1753" lon="-72.256735"/><trkpt lat="-40.175449" lon="-72.256707"/><trkpt lat="-40.175541" lon="-72.256678"/><trkpt lat="-40.175657" lon="-72.256651"/><trkpt lat="-40.175747" lon="-72.256622"/><trkpt lat="-40.1758" lon="-72.256502"/><trkpt lat="-40.175908" lon="-72.256438"/><trkpt lat="-40.175967" lon="-72.256413"/><trkpt lat="-40.176136" lon="-72.256364"/><trkpt lat="-40.176258" lon="-72.256325"/><trkpt lat="-40.17641" lon="-72.256308"/><trkpt lat="-40.176528" lon="-72.256332"/><trkpt lat="-40.176679" lon="-72.256278"/><trkpt lat="-40.176764" lon="-72.256262"/><trkpt lat="-40.176873" lon="-72.256235"/><trkpt lat="-40.176935" lon="-72.256246"/><trkpt lat="-40.17703" lon="-72.256204"/><trkpt lat="-40.177169" lon="-72.256109"/><trkpt lat="-40.177284" lon="-72.256082"/><trkpt lat="-40.17743" lon="-72.255996"/><trkpt lat="-40.177502" lon="-72.25586"/><trkpt lat="-40.177612" lon="-72.255809"/><trkpt lat="-40.177685" lon="-72.255719"/><trkpt lat="-40.177771" lon="-72.255714"/><trkpt lat="-40.177822" lon="-72.255622"/><trkpt lat="-40.177929" lon="-72.255592"/><trkpt lat="-40.178004" lon="-72.255541"/><trkpt lat="-40.178134" lon="-72.255424"/><trkpt lat="-40.178278" lon="-72.255338"/><trkpt lat="-40.178402" lon="-72.255254"/><trkpt lat="-40.178504" lon="-72.255199"/><trkpt lat="-40.178601" lon="-72.255114"/><trkpt lat="-40.178686" lon="-72.255035"/><trkpt lat="-40.178838" lon="-72.254908"/><trkpt lat="-40.178933" lon="-72.254839"/><trkpt lat="-40.179008" lon="-72.254724"/><trkpt lat="-40.179093" lon="-72.254723"/><trkpt lat="-40.179173" lon="-72.254673"/><trkpt lat="-40.179294" lon="-72.254588"/><trkpt lat="-40.179375" lon="-72.254559"/><trkpt lat="-40.179514" lon="-72.254505"/><trkpt lat="-40.179621" lon="-72.254464"/><trkpt lat="-40.179704" lon="-72.254358"/><trkpt lat="-40.179822" lon="-72.254273"/><trkpt lat="-40.179932" lon="-72.254248"/><trkpt lat="-40.180016" lon="-72.254134"/><trkpt lat="-40.180116" lon="-72.254049"/><trkpt lat="-40.180241" lon="-72.25399"/><trkpt lat="-40.180381" lon="-72.253945"/><trkpt lat="-40.18046" lon="-72.253859"/><trkpt lat="-40.180551" lon="-72.253837"/><trkpt lat="-40.180653" lon="-72.253787"/><trkpt lat="-40.180719" lon="-72.253705"/><trkpt lat="-40.180844" lon="-72.253662"/><trkpt lat="-40.180959" lon="-72.253551"/><trkpt lat="-40.181073" lon="-72.253459"/><trkpt lat="-40.181197" lon="-72.253411"/><trkpt lat="-40.181303" lon="-72.25338"/><trkpt lat="-40.181385" lon="-72.253303"/><trkpt lat="-40.181485" lon="-72.253197"/><trkpt lat="-40.181553" lon="-72.253158"/><trkpt lat="-40.181657" lon="-72.253092"/><trkpt lat="-40.181694" lon="-72.253064"/><trkpt lat="-40.181752" lon="-72.25304"/><trkpt lat="-40.181844" lon="-72.253013"/><trkpt lat="-40.182" lon="-72.253025"/><trkpt lat="-40.182105" lon="-72.253"/><trkpt lat="-40.182258" lon="-72.252976"/><trkpt lat="-40.18236" lon="-72.25302"/><trkpt lat="-40.182493" lon="-72.253047"/><trkpt lat="-40.182623" lon="-72.253021"/><trkpt lat="-40.182744" lon="-72.252972"/><trkpt lat="-40.182839" lon="-72.252973"/><trkpt lat="-40.182918" lon="-72.25296"/><trkpt lat="-40.183086" lon="-72.252904"/><trkpt lat="-40.183176" lon="-72.252809"/><trkpt lat="-40.183264" lon="-72.252804"/><trkpt lat="-40.183363" lon="-72.252791"/><trkpt lat="-40.183477" lon="-72.252763"/><trkpt lat="-40.183625" lon="-72.252744"/><trkpt lat="-40.183741" lon="-72.252715"/><trkpt lat="-40.183844" lon="-72.252684"/><trkpt lat="-40.183869" lon="-72.252635"/><trkpt lat="-40.184024" lon="-72.252632"/><trkpt lat="-40.184139" lon="-72.252608"/><trkpt lat="-40.184252" lon="-72.252524"/><trkpt lat="-40.184412" lon="-72.252456"/><trkpt lat="-40.184527" lon="-72.252435"/><trkpt lat="-40.184633" lon="-72.252428"/><trkpt lat="-40.184746" lon="-72.252375"/><trkpt lat="-40.184847" lon="-72.252357"/><trkpt lat="-40.185444" lon="-72.252066"/><trkpt lat="-40.185131" lon="-72.252334"/><trkpt lat="-40.185205" lon="-72.25238"/><trkpt lat="-40.185311" lon="-72.252397"/><trkpt lat="-40.185414" lon="-72.252405"/><trkpt lat="-40.185503" lon="-72.25239"/><trkpt lat="-40.185603" lon="-72.252416"/><trkpt lat="-40.185747" lon="-72.252435"/><trkpt lat="-40.186112" lon="-72.252225"/><trkpt lat="-40.186001" lon="-72.252523"/><trkpt lat="-40.186109" lon="-72.252576"/><trkpt lat="-40.186205" lon="-72.25261"/><trkpt lat="-40.186265" lon="-72.252687"/><trkpt lat="-40.186421" lon="-72.252684"/><trkpt lat="-40.18658" lon="-72.252732"/><trkpt lat="-40.18666" lon="-72.252775"/><trkpt lat="-40.186778" lon="-72.252816"/><trkpt lat="-40.186865" lon="-72.252876"/><trkpt lat="-40.186963" lon="-72.252906"/><trkpt lat="-40.187025" lon="-72.252898"/><trkpt lat="-40.187123" lon="-72.252919"/><trkpt lat="-40.18724" lon="-72.252914"/><trkpt lat="-40.187375" lon="-72.252947"/><trkpt lat="-40.187525" lon="-72.252936"/><trkpt lat="-40.187644" lon="-72.252978"/><trkpt lat="-40.187727" lon="-72.253025"/><trkpt lat="-40.187826" lon="-72.253034"/><trkpt lat="-40.187908" lon="-72.253064"/><trkpt lat="-40.188027" lon="-72.253107"/><trkpt lat="-40.188113" lon="-72.253167"/><trkpt lat="-40.188225" lon="-72.253198"/><trkpt lat="-40.188365" lon="-72.253246"/><trkpt lat="-40.188504" lon="-72.253328"/><trkpt lat="-40.188619" lon="-72.253364"/><trkpt lat="-40.188782" lon="-72.253025"/><trkpt lat="-40.188778" lon="-72.253375"/><trkpt lat="-40.188922" lon="-72.253387"/><trkpt lat="-40.189046" lon="-72.253487"/><trkpt lat="-40.18915" lon="-72.253553"/><trkpt lat="-40.189258" lon="-72.253605"/><trkpt lat="-40.189345" lon="-72.253636"/><trkpt lat="-40.18944" lon="-72.253691"/><trkpt lat="-40.18956" lon="-72.253725"/><trkpt lat="-40.189713" lon="-72.253746"/><trkpt lat="-40.18981" lon="-72.253786"/><trkpt lat="-40.189967" lon="-72.25382"/><trkpt lat="-40.190048" lon="-72.253878"/><trkpt lat="-40.190198" lon="-72.253994"/><trkpt lat="-40.190268" lon="-72.25406"/><trkpt lat="-40.190368" lon="-72.254122"/><trkpt lat="-40.190445" lon="-72.254209"/><trkpt lat="-40.190552" lon="-72.254251"/><trkpt lat="-40.190642" lon="-72.254303"/><trkpt lat="-40.190761" lon="-72.254343"/><trkpt lat="-40.190853" lon="-72.254397"/><trkpt lat="-40.190915" lon="-72.254406"/><trkpt lat="-40.191022" lon="-72.254483"/><trkpt lat="-40.191092" lon="-72.254578"/><trkpt lat="-40.191203" lon="-72.254642"/><trkpt lat="-40.191338" lon="-72.254722"/><trkpt lat="-40.191457" lon="-72.254821"/><trkpt lat="-40.191584" lon="-72.254871"/><trkpt lat="-40.191698" lon="-72.254938"/><trkpt lat="-40.191778" lon="-72.254946"/><trkpt lat="-40.191939" lon="-72.254986"/><trkpt lat="-40.192056" lon="-72.254976"/><trkpt lat="-40.192221" lon="-72.255059"/><trkpt lat="-40.192304" lon="-72.255124"/><trkpt lat="-40.19239" lon="-72.255173"/><trkpt lat="-40.192484" lon="-72.255265"/><trkpt lat="-40.192605" lon="-72.255374"/><trkpt lat="-40.192722" lon="-72.255444"/><trkpt lat="-40.192824" lon="-72.255512"/><trkpt lat="-40.19308" lon="-72.255629"/><trkpt lat="-40.193009" lon="-72.255624"/><trkpt lat="-40.193133" lon="-72.255616"/><trkpt lat="-40.193187" lon="-72.255773"/><trkpt lat="-40.193333" lon="-72.255811"/><trkpt lat="-40.193429" lon="-72.255857"/><trkpt lat="-40.193571" lon="-72.255915"/><trkpt lat="-40.193676" lon="-72.256014"/><trkpt lat="-40.193739" lon="-72.256047"/><trkpt lat="-40.193838" lon="-72.256058"/><trkpt lat="-40.193929" lon="-72.256174"/><trkpt lat="-40.194018" lon="-72.256251"/><trkpt lat="-40.194108" lon="-72.25628"/><trkpt lat="-40.194207" lon="-72.256335"/><trkpt lat="-40.194358" lon="-72.256442"/><trkpt lat="-40.194489" lon="-72.256514"/><trkpt lat="-40.194563" lon="-72.256533"/><trkpt lat="-40.194681" lon="-72.256603"/><trkpt lat="-40.194794" lon="-72.256641"/><trkpt lat="-40.194855" lon="-72.256713"/><trkpt lat="-40.194944" lon="-72.256777"/><trkpt lat="-40.194887" lon="-72.256502"/><trkpt lat="-40.195121" lon="-72.25683"/><trkpt lat="-40.195184" lon="-72.256882"/><trkpt lat="-40.195272" lon="-72.256941"/><trkpt lat="-40.195379" lon="-72.256974"/><trkpt lat="-40.195436" lon="-72.257054"/><trkpt lat="-40.195509" lon="-72.257117"/><trkpt lat="-40.195629" lon="-72.257192"/><trkpt lat="-40.195758" lon="-72.257256"/><trkpt lat="-40.195869" lon="-72.25731"/><trkpt lat="-40.195942" lon="-72.257373"/><trkpt lat="-40.196081" lon="-72.257417"/><trkpt lat="-40.196168" lon="-72.257456"/><trkpt lat="-40.196252" lon="-72.25747"/><trkpt lat="-40.196332" lon="-72.257521"/><trkpt lat="-40.196476" lon="-72.257576"/><trkpt lat="-40.196577" lon="-72.257685"/><trkpt lat="-40.196693" lon="-72.257812"/><trkpt lat="-40.196791" lon="-72.257872"/><trkpt lat="-40.19686" lon="-72.257919"/><trkpt lat="-40.196966" lon="-72.258005"/><trkpt lat="-40.197076" lon="-72.257998"/><trkpt lat="-40.197206" lon="-72.258072"/><trkpt lat="-40.197327" lon="-72.258157"/><trkpt lat="-40.197422" lon="-72.258167"/><trkpt lat="-40.19753" lon="-72.258189"/><trkpt lat="-40.197695" lon="-72.258259"/><trkpt lat="-40.19782" lon="-72.258341"/><trkpt lat="-40.197929" lon="-72.258408"/><trkpt lat="-40.198024" lon="-72.258436"/><trkpt lat="-40.198647" lon="-72.258682"/><trkpt lat="-40.198296" lon="-72.258557"/><trkpt lat="-40.198387" lon="-72.258621"/><trkpt lat="-40.198526" lon="-72.258753"/><trkpt lat="-40.198613" lon="-72.258848"/><trkpt lat="-40.198726" lon="-72.25889"/><trkpt lat="-40.198846" lon="-72.258942"/><trkpt lat="-40.198973" lon="-72.258989"/><trkpt lat="-40.199031" lon="-72.259051"/><trkpt lat="-40.199151" lon="-72.259053"/><trkpt lat="-40.199229" lon="-72.259169"/><trkpt lat="-40.199274" lon="-72.259222"/><trkpt lat="-40.199396" lon="-72.259261"/><trkpt lat="-40.199462" lon="-72.259357"/><trkpt lat="-40.199561" lon="-72.259427"/><trkpt lat="-40.199687" lon="-72.259473"/><trkpt lat="-40.199741" lon="-72.259577"/><trkpt lat="-40.199734" lon="-72.259691"/><trkpt lat="-40.19967" lon="-72.259803"/><trkpt lat="-40.19965" lon="-72.259905"/><trkpt lat="-40.199589" lon="-72.260056"/><trkpt lat="-40.199524" lon="-72.260235"/><trkpt lat="-40.199506" lon="-72.260417"/><trkpt lat="-40.199225" lon="-72.261072"/><trkpt lat="-40.199399" lon="-72.260642"/><trkpt lat="-40.19936" lon="-72.260746"/><trkpt lat="-40.199318" lon="-72.260847"/><trkpt lat="-40.199263" lon="-72.260925"/><trkpt lat="-40.199159" lon="-72.260946"/><trkpt lat="-40.199035" lon="-72.260964"/><trkpt lat="-40.198919" lon="-72.260925"/><trkpt lat="-40.198807" lon="-72.260864"/><trkpt lat="-40.198754" lon="-72.26082"/><trkpt lat="-40.198671" lon="-72.260883"/><trkpt lat="-40.198617" lon="-72.261"/><trkpt lat="-40.198598" lon="-72.261143"/><trkpt lat="-40.198732" lon="-72.261018"/><trkpt lat="-40.19858" lon="-72.261424"/><trkpt lat="-40.198531" lon="-72.261626"/><trkpt lat="-40.198516" lon="-72.261782"/><trkpt lat="-40.198488" lon="-72.261966"/><trkpt lat="-40.198443" lon="-72.262111"/><trkpt lat="-40.198404" lon="-72.262244"/><trkpt lat="-40.198376" lon="-72.262424"/><trkpt lat="-40.198331" lon="-72.262613"/><trkpt lat="-40.198303" lon="-72.262739"/><trkpt lat="-40.198284" lon="-72.262867"/><trkpt lat="-40.198224" lon="-72.262989"/><trkpt lat="-40.198169" lon="-72.263152"/><trkpt lat="-40.198177" lon="-72.263291"/><trkpt lat="-40.198115" lon="-72.263463"/><trkpt lat="-40.198079" lon="-72.263589"/><trkpt lat="-40.198013" lon="-72.263715"/><trkpt lat="-40.19797" lon="-72.263822"/><trkpt lat="-40.197901" lon="-72.263964"/><trkpt lat="-40.197845" lon="-72.264151"/><trkpt lat="-40.197853" lon="-72.26433"/><trkpt lat="-40.197842" lon="-72.264494"/><trkpt lat="-40.197815" lon="-72.264633"/></trkseg></trk></gpx>