<?xml version="1.0"?><gpx version="1.1"><trk><name>Paseo corto (prueba)</name><trkseg><trkpt lat="-39.814190" lon="-73.245887"><time>2026-10-05T15:00:00.000Z</time></trkpt><trkpt lat="-39.814172" lon="-73.245929"><time>2026-10-05T15:00:03.000Z</time></trkpt><trkpt lat="-39.814095" lon="-73.245977"><time>2026-10-05T15:00:06.000Z</time></trkpt><trkpt lat="-39.813974" lon="-73.245920"><time>2026-10-05T15:00:09.000Z</time></trkpt><trkpt lat="-39.813805" lon="-73.245945"><time>2026-10-05T15:00:12.000Z</time></trkpt><trkpt lat="-39.813691" lon="-73.246010"><time>2026-10-05T15:00:15.000Z</time></trkpt><trkpt lat="-39.813620" lon="-73.246129"><time>2026-10-05T15:00:18.000Z</time></trkpt><trkpt lat="-39.813535" lon="-73.246145"><time>2026-10-05T15:00:21.000Z</time></trkpt><trkpt lat="-39.813391" lon="-73.246175"><time>2026-10-05T15:00:24.000Z</time></trkpt><trkpt lat="-39.813278" lon="-73.246147"><time>2026-10-05T15:00:27.000Z</time></trkpt><trkpt lat="-39.813141" lon="-73.246152"><time>2026-10-05T15:00:30.000Z</time></trkpt><trkpt lat="-39.813020" lon="-73.246076"><time>2026-10-05T15:00:33.000Z</time></trkpt><trkpt lat="-39.812893" lon="-73.246042"><time>2026-10-05T15:00:36.000Z</time></trkpt><trkpt lat="-39.812811" lon="-73.245979"><time>2026-10-05T15:00:39.000Z</time></trkpt><trkpt lat="-39.812736" lon="-73.245969"><time>2026-10-05T15:00:42.000Z</time></trkpt><trkpt lat="-39.812627" lon="-73.245935"><time>2026-10-05T15:00:45.000Z</time></trkpt><trkpt lat="-39.812503" lon="-73.245884"><time>2026-10-05T15:00:48.000Z</time></trkpt><trkpt lat="-39.812377" lon="-73.245867"><time>2026-10-05T15:00:51.000Z</time></trkpt><trkpt lat="-39.812253" lon="-73.245834"><time>2026-10-05T15:00:54.000Z</time></trkpt><trkpt lat="-39.812496" lon="-73.245768"><time>2026-10-05T15:00:57.000Z</time></trkpt><trkpt lat="-39.811983" lon="-73.245856"><time>2026-10-05T15:01:00.000Z</time></trkpt><trkpt lat="-39.811883" lon="-73.245882"><time>2026-10-05T15:01:03.000Z</time></trkpt><trkpt lat="-39.811876" lon="-73.246041"><time>2026-10-05T15:01:06.000Z</time></trkpt><trkpt lat="-39.811901" lon="-73.246177"><time>2026-10-05T15:01:09.000Z</time></trkpt><trkpt lat="-39.811915" lon="-73.246370"><time>2026-10-05T15:01:12.000Z</time></trkpt><trkpt lat="-39.811942" lon="-73.246535"><time>2026-10-05T15:01:15.000Z</time></trkpt><trkpt lat="-39.811860" lon="-73.246673"><time>2026-10-05T15:01:18.000Z</time></trkpt><trkpt lat="-39.811851" lon="-73.246819"><time>2026-10-05T15:01:21.000Z</time></trkpt><trkpt lat="-39.811856" lon="-73.246947"><time>2026-10-05T15:01:24.000Z</time></trkpt><trkpt lat="-39.811848" lon="-73.247177"><time>2026-10-05T15:01:27.000Z</time></trkpt><trkpt lat="-39.811764" lon="-73.247340"><time>2026-10-05T15:01:30.000Z</time></trkpt><trkpt lat="-39.811731" lon="-73.247486"><time>2026-10-05T15:01:33.000Z</time></trkpt><trkpt lat="-39.811680" lon="-73.247679"><time>2026-10-05T15:01:36.000Z</time></trkpt><trkpt lat="-39.811652" lon="-73.247826"><time>2026-10-05T15:01:39.000Z</time></trkpt><trkpt lat="-39.811610" lon="-73.247978"><time>2026-10-05T15:01:42.000Z</time></trkpt><trkpt lat="-39.811592" lon="-73.248140"><time>2026-10-05T15:01:45.000Z</time></trkpt><trkpt lat="-39.811579" lon="-73.248297"><time>2026-10-05T15:01:48.000Z</time></trkpt><trkpt lat="-39.811572" lon="-73.248407"><time>2026-10-05T15:01:51.000Z</time></trkpt><trkpt lat="-39.811557" lon="-73.248626"><time>2026-10-05T15:01:54.000Z</time></trkpt><trkpt lat="-39.811513" lon="-73.248761"><time>2026-10-05T15:01:57.000Z</time></trkpt><trkpt lat="-39.811330" lon="-73.249260"><time>2026-10-05T15:02:00.000Z</time></trkpt><trkpt lat="-39.811499" lon="-73.249083"><time>2026-10-05T15:02:03.000Z</time></trkpt><trkpt lat="-39.811511" lon="-73.249188"><time>2026-10-05T15:02:06.000Z</time></trkpt><trkpt lat="-39.811467" lon="-73.249312"><time>2026-10-05T15:02:09.000Z</time></trkpt><trkpt lat="-39.811422" lon="-73.249445"><time>2026-10-05T15:02:12.000Z</time></trkpt><trkpt lat="-39.811395" lon="-73.249558"><time>2026-10-05T15:02:15.000Z</time></trkpt><trkpt lat="-39.811397" lon="-73.249718"><time>2026-10-05T15:02:18.000Z</time></trkpt><trkpt lat="-39.811329" lon="-73.249868"><time>2026-10-05T15:02:21.000Z</time></trkpt><trkpt lat="-39.811300" lon="-73.250169"><time>2026-10-05T15:02:24.000Z</time></trkpt><trkpt lat="-39.811294" lon="-73.250222"><time>2026-10-05T15:02:27.000Z</time></trkpt><trkpt lat="-39.811256" lon="-73.250339"><time>2026-10-05T15:02:30.000Z</time></trkpt><trkpt lat="-39.811264" lon="-73.250500"><time>2026-10-05T15:02:33.000Z</time></trkpt><trkpt lat="-39.811234" lon="-73.250651"><time>2026-10-05T15:02:36.000Z</time></trkpt><trkpt lat="-39.811173" lon="-73.250839"><time>2026-10-05T15:02:39.000Z</time></trkpt><trkpt lat="-39.811158" lon="-73.250924"><time>2026-10-05T15:02:42.000Z</time></trkpt><trkpt lat="-39.811125" lon="-73.251059"><time>2026-10-05T15:02:45.000Z</time></trkpt><trkpt lat="-39.811130" lon="-73.251171"><time>2026-10-05T15:02:48.000Z</time></trkpt><trkpt lat="-39.811115" lon="-73.251334"><time>2026-10-05T15:02:51.000Z</time></trkpt><trkpt lat="-39.811098" lon="-73.251475"><time>2026-10-05T15:02:54.000Z</time></trkpt><trkpt lat="-39.811009" lon="-73.251696"><time>2026-10-05T15:02:57.000Z</time></trkpt><trkpt lat="-39.810951" lon="-73.251883"><time>2026-10-05T15:03:00.000Z</time></trkpt><trkpt lat="-39.810882" lon="-73.251981"><time>2026-10-05T15:03:03.000Z</time></trkpt><trkpt lat="-39.810894" lon="-73.252113"><time>2026-10-05T15:03:06.000Z</time></trkpt><trkpt lat="-39.810827" lon="-73.252192"><time>2026-10-05T15:03:09.000Z</time></trkpt><trkpt lat="-39.810834" lon="-73.252304"><time>2026-10-05T15:03:12.000Z</time></trkpt><trkpt lat="-39.810963" lon="-73.252328"><time>2026-10-05T15:03:15.000Z</time></trkpt><trkpt lat="-39.811073" lon="-73.252351"><time>2026-10-05T15:03:18.000Z</time></trkpt><trkpt lat="-39.811216" lon="-73.252406"><time>2026-10-05T15:03:21.000Z</time></trkpt><trkpt lat="-39.811314" lon="-73.252484"><time>2026-10-05T15:03:24.000Z</time></trkpt><trkpt lat="-39.811454" lon="-73.252550"><time>2026-10-05T15:03:27.000Z</time></trkpt><trkpt lat="-39.811518" lon="-73.252676"><time>2026-10-05T15:03:30.000Z</time></trkpt><trkpt lat="-39.811634" lon="-73.252696"><time>2026-10-05T15:03:33.000Z</time></trkpt><trkpt lat="-39.811793" lon="-73.252738"><time>2026-10-05T15:03:36.000Z</time></trkpt><trkpt lat="-39.811976" lon="-73.252839"><time>2026-10-05T15:03:39.000Z</time></trkpt><trkpt lat="-39.812085" lon="-73.252830"><time>2026-10-05T15:03:42.000Z</time></trkpt><trkpt lat="-39.812208" lon="-73.252820"><time>2026-10-05T15:03:45.000Z</time></trkpt><trkpt lat="-39.812385" lon="-73.252875"><time>2026-10-05T15:03:48.000Z</time></trkpt><trkpt lat="-39.812451" lon="-73.252931"><time>2026-10-05T15:03:51.000Z</time></trkpt><trkpt lat="-39.812538" lon="-73.252987"><time>2026-10-05T15:03:54.000Z</time></trkpt><trkpt lat="-39.812611" lon="-73.253010"><time>2026-10-05T15:03:57.000Z</time></trkpt><trkpt lat="-39.812771" lon="-73.253068"><time>2026-10-05T15:04:00.000Z</time></trkpt><trkpt lat="-39.812866" lon="-73.253184"><time>2026-10-05T15:04:03.000Z</time></trkpt><trkpt lat="-39.812959" lon="-73.253245"><time>2026-10-05T15:04:06.000Z</time></trkpt><trkpt lat="-39.813046" lon="-73.253325"><time>2026-10-05T15:04:09.000Z</time></trkpt><trkpt lat="-39.813330" lon="-73.253588"><time>2026-10-05T15:04:12.000Z</time></trkpt><trkpt lat="-39.813143" lon="-73.253509"><time>2026-10-05T15:04:15.000Z</time></trkpt><trkpt lat="-39.813301" lon="-73.253623"><time>2026-10-05T15:04:18.000Z</time></trkpt><trkpt lat="-39.813386" lon="-73.253801"><time>2026-10-05T15:04:21.000Z</time></trkpt><trkpt lat="-39.813447" lon="-73.253852"><time>2026-10-05T15:04:24.000Z</time></trkpt><trkpt lat="-39.813496" lon="-73.254054"><time>2026-10-05T15:04:27.000Z</time></trkpt><trkpt lat="-39.813559" lon="-73.254162"><time>2026-10-05T15:04:30.000Z</time></trkpt><trkpt lat="-39.813671" lon="-73.254266"><time>2026-10-05T15:04:33.000Z</time></trkpt><trkpt lat="-39.813791" lon="-73.254482"><time>2026-10-05T15:04:36.000Z</time></trkpt><trkpt lat="-39.813848" lon="-73.254642"><time>2026-10-05T15:04:39.000Z</time></trkpt><trkpt lat="-39.813930" lon="-73.254756"><time>2026-10-05T15:04:42.000Z</time></trkpt><trkpt lat="-39.814069" lon="-73.254882"><time>2026-10-05T15:04:45.000Z</time></trkpt><trkpt lat="-39.814140" lon="-73.254950"><time>2026-10-05T15:04:48.000Z</time></trkpt><trkpt lat="-39.814282" lon="-73.255010"><time>2026-10-05T15:04:51.000Z</time></trkpt><trkpt lat="-39.814395" lon="-73.255071"><time>2026-10-05T15:04:54.000Z</time></trkpt><trkpt lat="-39.814518" lon="-73.255162"><time>2026-10-05T15:04:57.000Z</time></trkpt><trkpt lat="-39.814603" lon="-73.255183"><time>2026-10-05T15:05:00.000Z</time></trkpt><trkpt lat="-39.814720" lon="-73.255229"><time>2026-10-05T15:05:03.000Z</time></trkpt><trkpt lat="-39.814859" lon="-73.255304"><time>2026-10-05T15:05:06.000Z</time></trkpt><trkpt lat="-39.814995" lon="-73.255419"><time>2026-10-05T15:05:09.000Z</time></trkpt><trkpt lat="-39.815093" lon="-73.255466"><time>2026-10-05T15:05:12.000Z</time></trkpt><trkpt lat="-39.815120" lon="-73.255547"><time>2026-10-05T15:05:15.000Z</time></trkpt><trkpt lat="-39.815208" lon="-73.255646"><time>2026-10-05T15:05:18.000Z</time></trkpt><trkpt lat="-39.815294" lon="-73.255678"><time>2026-10-05T15:05:21.000Z</time></trkpt><trkpt lat="-39.815425" lon="-73.256119"><time>2026-10-05T15:05:24.000Z</time></trkpt><trkpt lat="-39.815517" lon="-73.255841"><time>2026-10-05T15:05:27.000Z</time></trkpt><trkpt lat="-39.815609" lon="-73.255884"><time>2026-10-05T15:05:30.000Z</time></trkpt><trkpt lat="-39.815716" lon="-73.255921"><time>2026-10-05T15:05:33.000Z</time></trkpt><trkpt lat="-39.815811" lon="-73.256033"><time>2026-10-05T15:05:36.000Z</time></trkpt><trkpt lat="-39.815761" lon="-73.256184"><time>2026-10-05T15:05:39.000Z</time></trkpt><trkpt lat="-39.815689" lon="-73.256294"><time>2026-10-05T15:05:42.000Z</time></trkpt><trkpt lat="-39.815674" lon="-73.256446"><time>2026-10-05T15:05:45.000Z</time></trkpt><trkpt lat="-39.815632" lon="-73.256566"><time>2026-10-05T15:05:48.000Z</time></trkpt><trkpt lat="-39.815557" lon="-73.256705"><time>2026-10-05T15:05:51.000Z</time></trkpt><trkpt lat="-39.815510" lon="-73.256842"><time>2026-10-05T15:05:54.000Z</time></trkpt><trkpt lat="-39.815479" lon="-73.257010"><time>2026-10-05T15:05:57.000Z</time></trkpt><trkpt lat="-39.815605" lon="-73.257142"><time>2026-10-05T15:06:00.000Z</time></trkpt><trkpt lat="-39.815398" lon="-73.257342"><time>2026-10-05T15:06:03.000Z</time></trkpt><trkpt lat="-39.815355" lon="-73.257522"><time>2026-10-05T15:06:06.000Z</time></trkpt><trkpt lat="-39.815292" lon="-73.257674"><time>2026-10-05T15:06:09.000Z</time></trkpt><trkpt lat="-39.815224" lon="-73.257846"><time>2026-10-05T15:06:12.000Z</time></trkpt><trkpt lat="-39.815187" lon="-73.257978"><time>2026-10-05T15:06:15.000Z</time></trkpt><trkpt lat="-39.815163" lon="-73.258203"><time>2026-10-05T15:06:18.000Z</time></trkpt><trkpt lat="-39.815117" lon="-73.258351"><time>2026-10-05T15:06:21.000Z</time></trkpt><trkpt lat="-39.815057" lon="-73.258431"><time>2026-10-05T15:06:24.000Z</time></trkpt><trkpt lat="-39.815009" lon="-73.258505"><time>2026-10-05T15:06:27.000Z</time></trkpt><trkpt lat="-39.814944" lon="-73.258645"><time>2026-10-05T15:06:30.000Z</time></trkpt><trkpt lat="-39.814903" lon="-73.258794"><time>2026-10-05T15:06:33.000Z</time></trkpt><trkpt lat="-39.814817" lon="-73.258959"><time>2026-10-05T15:06:36.000Z</time></trkpt><trkpt lat="-39.814727" lon="-73.259123"><time>2026-10-05T15:06:39.000Z</time></trkpt><trkpt lat="-39.814669" lon="-73.259255"><time>2026-10-05T15:06:42.000Z</time></trkpt><trkpt lat="-39.814671" lon="-73.259411"><time>2026-10-05T15:06:45.000Z</time></trkpt><trkpt lat="-39.814589" lon="-73.259510"><time>2026-10-05T15:06:48.000Z</time></trkpt><trkpt lat="-39.814521" lon="-73.259621"><time>2026-10-05T15:06:51.000Z</time></trkpt><trkpt lat="-39.814534" lon="-73.259754"><time>2026-10-05T15:06:54.000Z</time></trkpt><trkpt lat="-39.814644" lon="-73.259825"><time>2026-10-05T15:06:57.000Z</time></trkpt><trkpt lat="-39.814757" lon="-73.259854"><time>2026-10-05T15:07:00.000Z</time></trkpt><trkpt lat="-39.814904" lon="-73.259899"><time>2026-10-05T15:07:03.000Z</time></trkpt><trkpt lat="-39.814976" lon="-73.259871"><time>2026-10-05T15:07:06.000Z</time></trkpt><trkpt lat="-39.815118" lon="-73.259944"><time>2026-10-05T15:07:09.000Z</time></trkpt><trkpt lat="-39.815217" lon="-73.260009"><time>2026-10-05T15:07:12.000Z</time></trkpt><trkpt lat="-39.815394" lon="-73.260035"><time>2026-10-05T15:07:15.000Z</time></trkpt><trkpt lat="-39.815488" lon="-73.260027"><time>2026-10-05T15:07:18.000Z</time></trkpt><trkpt lat="-39.815567" lon="-73.260040"><time>2026-10-05T15:07:21.000Z</time></trkpt><trkpt lat="-39.815617" lon="-73.260086"><time>2026-10-05T15:07:24.000Z</time></trkpt><trkpt lat="-39.815761" lon="-73.260073"><time>2026-10-05T15:07:27.000Z</time></trkpt><trkpt lat="-39.815882" lon="-73.260131"><time>2026-10-05T15:07:30.000Z</time></trkpt><trkpt lat="-39.816015" lon="-73.260117"><time>2026-10-05T15:07:33.000Z</time></trkpt><trkpt lat="-39.816201" lon="-73.260184"><time>2026-10-05T15:07:36.000Z</time></trkpt><trkpt lat="-39.816324" lon="-73.260177"><time>2026-10-05T15:07:39.000Z</time></trkpt><trkpt lat="-39.816431" lon="-73.260251"><time>2026-10-05T15:07:42.000Z</time></trkpt><trkpt lat="-39.816586" lon="-73.260287"><time>2026-10-05T15:07:45.000Z</time></trkpt><trkpt lat="-39.816665" lon="-73.260290"><time>2026-10-05T15:07:48.000Z</time></trkpt><trkpt lat="-39.816756" lon="-73.260299"><time>2026-10-05T15:07:51.000Z</time></trkpt><trkpt lat="-39.816942" lon="-73.260385"><time>2026-10-05T15:07:54.000Z</time></trkpt><trkpt lat="-39.817112" lon="-73.260360"><time>2026-10-05T15:07:57.000Z</time></trkpt></trkseg></trk></gpx>